{"type":"FeatureCollection","features":[{"type":"Feature","geometry":{"type":"Point","coordinates":[-70.62522386729555,-33.402777979299735]},"properties":{"TIPO":"AVISO","CODIGO":"DF202671808630","COD_AVISO":1057029061,"DIRECCION":"","FALLA":"TEN Actualizado a 29/09/2026 1","DESC_EVENTO":"prueba","COD_EVENTO":"DF202671808630","FECHA_REPOSICION":"29-09-2026 18:30","FECHA_INI":"29-09-2026 09:30","id_alim":2332,"numero_cliente":908718,"ID_AVISO":"500ck00001DBXX9AAP"}},{"type":"Feature","geometry":{"type":"Point","coordinates":[-70.79807880751396,-33.53147712609829]},"properties":{"TIPO":"AVISO","CODIGO":"DF202671818954","COD_AVISO":1057267073,"DIRECCION":"MALLOA 3208 ","FALLA":"--","DESC_EVENTO":"prueba","COD_EVENTO":"DF202671818954","FECHA_REPOSICION":"29-09-2026 21:38","FECHA_INI":"29-09-2026 16:38","id_alim":3333,"numero_cliente":3203851,"ID_AVISO":"500ck00001DEHxgAAH"}},{"type":"Feature","geometry":{"type":"Point","coordinates":[-70.64708297679783,-33.44200981575034]},"properties":{"TIPO":"AVISO","CODIGO":"DF202671818961","COD_AVISO":1057271532,"DIRECCION":"SAN FRANCISCO 42 503 ","FALLA":"Telefono de contacto FC/947409","DESC_EVENTO":"prueba","COD_EVENTO":"DF202671818961","FECHA_REPOSICION":"29-09-2026 21:47","FECHA_INI":"29-09-2026 16:47","id_alim":640,"numero_cliente":468576,"ID_AVISO":"500ck00001DDT2yAAH"}},{"type":"Feature","geometry":{"type":"Point","coordinates":[-70.53139852212233,-33.454907773553025]},"properties":{"TIPO":"AVISO","CODIGO":"DF202671818962","COD_AVISO":1057272029,"DIRECCION":"CAMARONES 433 ","FALLA":"Telefono de contacto FC/998298","DESC_EVENTO":"prueba","COD_EVENTO":"DF202671818962","FECHA_REPOSICION":"29-09-2026 21:48","FECHA_INI":"29-09-2026 16:48","id_alim":2911,"numero_cliente":471829,"ID_AVISO":"500ck00001DEpndAAD"}},{"type":"Feature","geometry":{"type":"Point","coordinates":[-70.68068018890312,-33.478920175304296]},"properties":{"TIPO":"AVISO","CODIGO":"DF202671818767","COD_AVISO":1057116959,"DIRECCION":"1 ORIENTE 3535 ","FALLA":"TEN Actualizado a 29/09/2026 2","DESC_EVENTO":"prueba","COD_EVENTO":"DF202671818767","FECHA_REPOSICION":"29-09-2026 20:50","FECHA_INI":"29-09-2026 12:50","id_alim":1215,"numero_cliente":337614,"ID_AVISO":"500ck00001DBbeQAAT"}},{"type":"Feature","geometry":{"type":"Point","coordinates":[-70.55439658981456,-33.41807958483272]},"properties":{"TIPO":"AVISO","CODIGO":"DF202671818939","COD_AVISO":1057261954,"DIRECCION":"MARTIN ALONSO PINZON 7420 DP 1405 ","FALLA":"Cliente: Fernando SepulvedaRUT","DESC_EVENTO":"prueba","COD_EVENTO":"DF202671818939","FECHA_REPOSICION":"29-09-2026 21:30","FECHA_INI":"29-09-2026 16:30","id_alim":2912,"numero_cliente":2688867,"ID_AVISO":"500ck00001DEZ2zAAH"}},{"type":"Feature","geometry":{"type":"Point","coordinates":[-70.78863869531578,-33.53122060746858]},"properties":{"TIPO":"AVISO","CODIGO":"DF202671818761","COD_AVISO":1057111265,"DIRECCION":"EMILIO SALGARI 812 ","FALLA":"TEN Actualizado a 29/09/2026 2","DESC_EVENTO":"prueba","COD_EVENTO":"DF202671818761","FECHA_REPOSICION":"29-09-2026 20:47","FECHA_INI":"29-09-2026 12:47","id_alim":3333,"numero_cliente":1470265,"ID_AVISO":"500ck00001DCzeAAAT"}},{"type":"Feature","geometry":{"type":"Point","coordinates":[-70.67482917096945,-33.46257501716382]},"properties":{"TIPO":"AVISO","CODIGO":"DF202671818864","COD_AVISO":1057205802,"DIRECCION":"CONFERENCIA 1257 C/3 ","FALLA":"ConnID: 0ae603b593acb94aNombre","DESC_EVENTO":"prueba","COD_EVENTO":"DF202671818864","FECHA_REPOSICION":"29-09-2026 20:02","FECHA_INI":"29-09-2026 15:02","id_alim":611,"numero_cliente":276250,"ID_AVISO":"500ck00001DENPsAAP"}},{"type":"Feature","geometry":{"type":"Point","coordinates":[-70.67632908852605,-33.432388579068174]},"properties":{"TIPO":"AVISO","CODIGO":"DF202671818809","COD_AVISO":1057159498,"DIRECCION":"ESPERANZA 868 ","FALLA":"Telefono de contacto FC/937013","DESC_EVENTO":"prueba","COD_EVENTO":"DF202671818809","FECHA_REPOSICION":"29-09-2026 18:53","FECHA_INI":"29-09-2026 13:53","id_alim":313,"numero_cliente":633553,"ID_AVISO":"500ck00001DCoJ1AAL"}},{"type":"Feature","geometry":{"type":"Point","coordinates":[-70.71182507246483,-33.3594273195522]},"properties":{"TIPO":"AVISO","CODIGO":"DF202671818874","COD_AVISO":1057215194,"DIRECCION":"JUAN PABLO II 1492 ","FALLA":"Telefono de contacto FC/995196","DESC_EVENTO":"prueba","COD_EVENTO":"DF202671818874","FECHA_REPOSICION":"29-09-2026 20:16","FECHA_INI":"29-09-2026 15:16","id_alim":1441,"numero_cliente":2661717,"ID_AVISO":"500ck00001DDxE1AAL"}},{"type":"Feature","geometry":{"type":"Point","coordinates":[-70.78847910755489,-33.21907401078866]},"properties":{"TIPO":"AVISO","CODIGO":"DF202671818940","COD_AVISO":1057262428,"DIRECCION":"CAMINO INTERIOR PORCIO 1 S/N PARC 17 ","FALLA":"OBS LARI: REALIZA LLAMADO FONO","DESC_EVENTO":"prueba","COD_EVENTO":"DF202671818940","FECHA_REPOSICION":"29-09-2026 21:30","FECHA_INI":"29-09-2026 16:30","id_alim":5516,"numero_cliente":3459171,"ID_AVISO":"500ck00001DEV7YAAX"}},{"type":"Feature","geometry":{"type":"Point","coordinates":[-70.65433705430523,-33.44923525079456]},"properties":{"TIPO":"AVISO","CODIGO":"DF202671818627","COD_AVISO":1057016582,"DIRECCION":"LORD COCHRANE 418 ","FALLA":"TEN Actualizado a 29/09/2026 2","DESC_EVENTO":"prueba","COD_EVENTO":"DF202671818627","FECHA_REPOSICION":"29-09-2026 20:38","FECHA_INI":"29-09-2026 10:38","id_alim":1615,"numero_cliente":1339799,"ID_AVISO":"500ck00001DALvKAAX"}},{"type":"Feature","geometry":{"type":"Point","coordinates":[-70.66429404171745,-33.404859896522176]},"properties":{"TIPO":"AVISO","CODIGO":"DF202671818945","COD_AVISO":1057263859,"DIRECCION":"HIPODROMO DE CHILE 1702 DEPTO 2006 ","FALLA":"--","DESC_EVENTO":"prueba","COD_EVENTO":"DF202671818945","FECHA_REPOSICION":"29-09-2026 21:33","FECHA_INI":"29-09-2026 16:33","id_alim":122,"numero_cliente":3147913,"ID_AVISO":"500ck00001DENqAAAX"}},{"type":"Feature","geometry":{"type":"Point","coordinates":[-70.65267693425244,-33.37885738327841]},"properties":{"TIPO":"AVISO","CODIGO":"DF202671818674","COD_AVISO":1057049501,"DIRECCION":"PERNAS 1140 ","FALLA":"TEN Actualizado a 29/09/2026 1","DESC_EVENTO":"prueba","COD_EVENTO":"DF202671818674","FECHA_REPOSICION":"29-09-2026 19:05","FECHA_INI":"29-09-2026 11:18","id_alim":2321,"numero_cliente":308749,"ID_AVISO":"500ck00001DAIHJAA5"}},{"type":"Feature","geometry":{"type":"Point","coordinates":[-70.70276519846334,-33.44124726549126]},"properties":{"TIPO":"AVISO","CODIGO":"DF202671818943","COD_AVISO":1057262170,"DIRECCION":"RADAL 828 DP 203 ","FALLA":"ConnID: 0ae603b593acd2bdNombre","DESC_EVENTO":"prueba","COD_EVENTO":"DF202671818943","FECHA_REPOSICION":"29-09-2026 21:32","FECHA_INI":"29-09-2026 16:32","id_alim":2023,"numero_cliente":3160158,"ID_AVISO":"500ck00001DDpS2AAL"}},{"type":"Feature","geometry":{"type":"Point","coordinates":[-70.5642368959733,-33.528637194927825]},"properties":{"TIPO":"AVISO","CODIGO":"DF202671818964","COD_AVISO":1057272914,"DIRECCION":"JORGE ROBLEDO 3056 ","FALLA":"Telefono de contacto FC/996080","DESC_EVENTO":"prueba","COD_EVENTO":"DF202671818964","FECHA_REPOSICION":"29-09-2026 21:50","FECHA_INI":"29-09-2026 16:50","id_alim":2443,"numero_cliente":1294036,"ID_AVISO":"500ck00001DE7C2AAL"}},{"type":"Feature","geometry":{"type":"Point","coordinates":[-70.67533003165249,-33.39178182611215]},"properties":{"TIPO":"AVISO","CODIGO":"DF202671818521","COD_AVISO":1056925812,"DIRECCION":"TENIENTE PONCE 2024 ","FALLA":"TEN Actualizado a 29/09/2026 1","DESC_EVENTO":"prueba","COD_EVENTO":"DF202671818521","FECHA_REPOSICION":"29-09-2026 19:39","FECHA_INI":"29-09-2026 08:37","id_alim":127,"numero_cliente":352726,"ID_AVISO":"500ck00001DAcIeAAL"}},{"type":"Feature","geometry":{"type":"Point","coordinates":[-70.72797342958903,-33.48728277102122]},"properties":{"TIPO":"AVISO","CODIGO":"DF202671818776","COD_AVISO":1057125388,"DIRECCION":"LOS PRESIDENTES 7326 ","FALLA":"TEN Actualizado a 29/09/2026 2","DESC_EVENTO":"prueba","COD_EVENTO":"DF202671818776","FECHA_REPOSICION":"29-09-2026 21:05","FECHA_INI":"29-09-2026 13:05","id_alim":2213,"numero_cliente":955576,"ID_AVISO":"500ck00001DBz2TAAT"}},{"type":"Feature","geometry":{"type":"Point","coordinates":[-70.74986234472773,-33.42175273269633]},"properties":{"TIPO":"AVISO","CODIGO":"DF202671818843","COD_AVISO":1057183300,"DIRECCION":"LA AFRICANA 7967 ","FALLA":"Cliente: Viviana Salgada / Ine","DESC_EVENTO":"prueba","COD_EVENTO":"DF202671818843","FECHA_REPOSICION":"29-09-2026 19:31","FECHA_INI":"29-09-2026 14:31","id_alim":423,"numero_cliente":502254,"ID_AVISO":"500ck00001DDYGyAAP"}},{"type":"Feature","geometry":{"type":"Point","coordinates":[-70.69034603850669,-33.365077483805784]},"properties":{"TIPO":"AVISO","CODIGO":"DF202671818919","COD_AVISO":1057251707,"DIRECCION":"JULIO PARRA STOS1969 D33 ","FALLA":"Hola buenas tardes por favor c","DESC_EVENTO":"prueba","COD_EVENTO":"DF202671818919","FECHA_REPOSICION":"29-09-2026 21:12","FECHA_INI":"29-09-2026 16:12","id_alim":1414,"numero_cliente":1106313,"ID_AVISO":"500ck00001DEQ3NAAX"}},{"type":"Feature","geometry":{"type":"Point","coordinates":[-70.64665198046063,-33.427646534827026]},"properties":{"TIPO":"AVISO","CODIGO":"DF202671818652","COD_AVISO":1057035710,"DIRECCION":"SANTA FILOMENA 566 ","FALLA":"TEN Actualizado a 29/09/2026 1","DESC_EVENTO":"prueba","COD_EVENTO":"DF202671818652","FECHA_REPOSICION":"29-09-2026 19:01","FECHA_INI":"29-09-2026 11:01","id_alim":3117,"numero_cliente":481878,"ID_AVISO":"500ck00001DByHDAA1"}},{"type":"Feature","geometry":{"type":"Point","coordinates":[-70.62460401448764,-33.46916305190069]},"properties":{"TIPO":"AVISO","CODIGO":"DF202671818466","COD_AVISO":1056997179,"DIRECCION":"AV VICUNA MACKENNA 2289A T/ 1 D/ 2104 ","FALLA":"TEN Actualizado a 29/09/2026 2","DESC_EVENTO":"prueba","COD_EVENTO":"DF202671818466","FECHA_REPOSICION":"29-09-2026 20:51","FECHA_INI":"29-09-2026 06:51","id_alim":1934,"numero_cliente":2913219,"ID_AVISO":"500ck00001DBYxeAAH"}},{"type":"Feature","geometry":{"type":"Point","coordinates":[-70.62460401448764,-33.46916305190069]},"properties":{"TIPO":"AVISO","CODIGO":"DF202671818466","COD_AVISO":1057215796,"DIRECCION":"AV VICUNA MACKENNA 2289A T/ 1 D/ 2104 ","FALLA":"TEN Actualizado a 29/09/2026 2","DESC_EVENTO":"prueba","COD_EVENTO":"DF202671818466","FECHA_REPOSICION":"29-09-2026 20:51","FECHA_INI":"29-09-2026 06:51","id_alim":1934,"numero_cliente":2913093,"ID_AVISO":"500ck00001DCv3OAAT"}},{"type":"Feature","geometry":{"type":"Point","coordinates":[-70.74729924787054,-33.35669006367066]},"properties":{"TIPO":"AVISO","CODIGO":"DF202671818601","COD_AVISO":"I1056985371","DIRECCION":"SANTA LAURA 697 ","FALLA":"TEN Actualizado a 29/09/2026 2","DESC_EVENTO":"prueba","COD_EVENTO":"DF202671818601","FECHA_REPOSICION":"29-09-2026 20:59","FECHA_INI":"29-09-2026 09:59","id_alim":2833,"numero_cliente":1587044,"ID_AVISO":"500ck00001DAzaOAAT"}},{"type":"Feature","geometry":{"type":"Point","coordinates":[-70.63855394592039,-33.45967810709175]},"properties":{"TIPO":"AVISO","CODIGO":"DF202671818852","COD_AVISO":1057194465,"DIRECCION":"CARMEN 1365 ","FALLA":"Telefono de contacto FC/968228","DESC_EVENTO":"prueba","COD_EVENTO":"DF202671818852","FECHA_REPOSICION":"29-09-2026 19:45","FECHA_INI":"29-09-2026 14:45","id_alim":1951,"numero_cliente":692128,"ID_AVISO":"500ck00001DDHTXAA5"}},{"type":"Feature","geometry":{"type":"Point","coordinates":[-70.85488185540171,-33.457596253130056]},"properties":{"TIPO":"AVISO","CODIGO":"DF202671818609","COD_AVISO":1056996677,"DIRECCION":"EL YUNQUE 20976 ","FALLA":"TEN Actualizado a 29/09/2026 1","DESC_EVENTO":"prueba","COD_EVENTO":"DF202671818609","FECHA_REPOSICION":"29-09-2026 18:21","FECHA_INI":"29-09-2026 10:21","id_alim":5715,"numero_cliente":2801943,"ID_AVISO":"500ck00001DAsFxAAL"}},{"type":"Feature","geometry":{"type":"Point","coordinates":[-70.63832590438423,-33.431507717457556]},"properties":{"TIPO":"AVISO","CODIGO":"DF202671818714","COD_AVISO":1057077569,"DIRECCION":"DARDIGNAC 84 A ","FALLA":"TEN Actualizado a 29/09/2026 1","DESC_EVENTO":"prueba","COD_EVENTO":"DF202671818714","FECHA_REPOSICION":"29-09-2026 19:55","FECHA_INI":"29-09-2026 11:55","id_alim":1731,"numero_cliente":184987,"ID_AVISO":"500ck00001DBZE8AAP"}},{"type":"Feature","geometry":{"type":"Point","coordinates":[-70.70081022276403,-33.429620856100584]},"properties":{"TIPO":"AVISO","CODIGO":"DF202671818565","COD_AVISO":1056960495,"DIRECCION":"J J PEREZ       4739 ","FALLA":"TEN Actualizado a 29/09/2026 2","DESC_EVENTO":"prueba","COD_EVENTO":"DF202671818565","FECHA_REPOSICION":"29-09-2026 20:26","FECHA_INI":"29-09-2026 09:26","id_alim":2041,"numero_cliente":54832,"ID_AVISO":"500ck00001DA9nWAAT"}},{"type":"Feature","geometry":{"type":"Point","coordinates":[-70.62522386729555,-33.402777979299735]},"properties":{"TIPO":"AVISO","CODIGO":"DF202671808630","COD_AVISO":1056989782,"DIRECCION":"","FALLA":"TEN Actualizado a 29/09/2026 1","DESC_EVENTO":"prueba","COD_EVENTO":"DF202671808630","FECHA_REPOSICION":"29-09-2026 18:30","FECHA_INI":"29-09-2026 09:30","id_alim":2332,"numero_cliente":525760,"ID_AVISO":"500ck00001DAuJCAA1"}},{"type":"Feature","geometry":{"type":"Point","coordinates":[-70.69211327085027,-33.47831224952827]},"properties":{"TIPO":"AVISO","CODIGO":"DF202671818721","COD_AVISO":1057081883,"DIRECCION":"PASAJE INTERIOR 4340 ","FALLA":"TEN Actualizado a 29/09/2026 2","DESC_EVENTO":"prueba","COD_EVENTO":"DF202671818721","FECHA_REPOSICION":"29-09-2026 20:00","FECHA_INI":"29-09-2026 12:00","id_alim":2222,"numero_cliente":144437,"ID_AVISO":"500ck00001DBmHiAAL"}},{"type":"Feature","geometry":{"type":"Point","coordinates":[-70.74676433443643,-33.40369411896577]},"properties":{"TIPO":"AVISO","CODIGO":"DF202671818482","COD_AVISO":1056901389,"DIRECCION":"LOS ARTESANOS 1165 DP 105 ","FALLA":"TEN Actualizado a 29/09/2026 1","DESC_EVENTO":"prueba","COD_EVENTO":"DF202671818482","FECHA_REPOSICION":"29-09-2026 18:44","FECHA_INI":"29-09-2026 07:44","id_alim":411,"numero_cliente":3413605,"ID_AVISO":"500ck00001D9wmPAAR"}},{"type":"Feature","geometry":{"type":"Point","coordinates":[-70.65181920174717,-33.50991295053131]},"properties":{"TIPO":"AVISO","CODIGO":"DF202671818788","COD_AVISO":1057139188,"DIRECCION":"TANNENBAUN 865 ","FALLA":"Telefono de contacto FC/994196","DESC_EVENTO":"prueba","COD_EVENTO":"DF202671818788","FECHA_REPOSICION":"29-09-2026 18:23","FECHA_INI":"29-09-2026 13:23","id_alim":536,"numero_cliente":781573,"ID_AVISO":"500ck00001DD90nAAD"}},{"type":"Feature","geometry":{"type":"Point","coordinates":[-70.70065527648111,-33.478531950442054]},"properties":{"TIPO":"AVISO","CODIGO":"DF202671818831","COD_AVISO":1057173205,"DIRECCION":"DEL FERROCARRIL 4756 ","FALLA":"ConnID: 0ae603b593acabd5Nombre","DESC_EVENTO":"prueba","COD_EVENTO":"DF202671818831","FECHA_REPOSICION":"29-09-2026 19:14","FECHA_INI":"29-09-2026 14:14","id_alim":2214,"numero_cliente":234911,"ID_AVISO":"500ck00001DDA8XAAX"}},{"type":"Feature","geometry":{"type":"Point","coordinates":[-70.65829090402528,-33.386203167479636]},"properties":{"TIPO":"AVISO","CODIGO":"DF202671818802","COD_AVISO":1057151029,"DIRECCION":"CACIQUE LEOCATO 3809 ","FALLA":"ConnID: 0ae603b593ac9fadNombre","DESC_EVENTO":"prueba","COD_EVENTO":"DF202671818802","FECHA_REPOSICION":"29-09-2026 18:42","FECHA_INI":"29-09-2026 13:42","id_alim":2342,"numero_cliente":842377,"ID_AVISO":"500ck00001DCl6pAAD"}},{"type":"Feature","geometry":{"type":"Point","coordinates":[-70.79183172414263,-33.53730801150187]},"properties":{"TIPO":"AVISO","CODIGO":"DF202671818910","COD_AVISO":1057244864,"DIRECCION":"AVDA. PDTE GABRIEL GONZÁLEZ 2636 ED 8 D 33 ","FALLA":"null Comuna: MAIPU","DESC_EVENTO":"prueba","COD_EVENTO":"DF202671818910","FECHA_REPOSICION":"29-09-2026 21:00","FECHA_INI":"29-09-2026 16:00","id_alim":3316,"numero_cliente":3305346,"ID_AVISO":"500ck00001DEdeHAAT"}},{"type":"Feature","geometry":{"type":"Point","coordinates":[-70.62844389370942,-33.4053491814865]},"properties":{"TIPO":"AVISO","CODIGO":"DF202671818623","COD_AVISO":1057015382,"DIRECCION":"ANTONIA PRADO 0491  ","FALLA":"TEN Actualizado a 29/09/2026 1","DESC_EVENTO":"prueba","COD_EVENTO":"DF202671818623","FECHA_REPOSICION":"29-09-2026 18:36","FECHA_INI":"29-09-2026 10:36","id_alim":2332,"numero_cliente":33523,"ID_AVISO":"500ck00001DBOSPAA5"}},{"type":"Feature","geometry":{"type":"Point","coordinates":[-70.52325439165826,-33.360882976002]},"properties":{"TIPO":"AVISO","CODIGO":"DF202671818929","COD_AVISO":1057256136,"DIRECCION":"CAMINO DE LA VILLA 1054 C/ 2 ","FALLA":"Telefono de contacto FC/942580","DESC_EVENTO":"prueba","COD_EVENTO":"DF202671818929","FECHA_REPOSICION":"29-09-2026 21:19","FECHA_INI":"29-09-2026 16:19","id_alim":3024,"numero_cliente":2793794,"ID_AVISO":"500ck00001DEliGAAT"}},{"type":"Feature","geometry":{"type":"Point","coordinates":[-70.62460401448764,-33.46916305190069]},"properties":{"TIPO":"AVISO","CODIGO":"DF202671818466","COD_AVISO":1056889194,"DIRECCION":"AV VICUNA MACKENNA 2289A T/ 1 D/ 2104 ","FALLA":"TEN Actualizado a 29/09/2026 2","DESC_EVENTO":"prueba","COD_EVENTO":"DF202671818466","FECHA_REPOSICION":"29-09-2026 20:51","FECHA_INI":"29-09-2026 06:51","id_alim":1934,"numero_cliente":2913222,"ID_AVISO":"500ck00001D9YYvAAN"}},{"type":"Feature","geometry":{"type":"Point","coordinates":[-70.62460401448764,-33.46916305190069]},"properties":{"TIPO":"AVISO","CODIGO":"DF202671818466","COD_AVISO":1057023507,"DIRECCION":"AV VICUNA MACKENNA 2289A T/ 1 D/ 2104 ","FALLA":"TEN Actualizado a 29/09/2026 2","DESC_EVENTO":"prueba","COD_EVENTO":"DF202671818466","FECHA_REPOSICION":"29-09-2026 20:51","FECHA_INI":"29-09-2026 06:51","id_alim":1934,"numero_cliente":2913212,"ID_AVISO":"500ck00001DAAADAA5"}},{"type":"Feature","geometry":{"type":"Point","coordinates":[-70.64214593753007,-33.44021511126274]},"properties":{"TIPO":"AVISO","CODIGO":"DF202671818593","COD_AVISO":1056988469,"DIRECCION":"QUITO 43 A ","FALLA":"TEN Actualizado a 29/09/2026 2","DESC_EVENTO":"prueba","COD_EVENTO":"DF202671818593","FECHA_REPOSICION":"29-09-2026 21:04","FECHA_INI":"29-09-2026 10:04","id_alim":1731,"numero_cliente":380450,"ID_AVISO":"500ck00001DBTmgAAH"}},{"type":"Feature","geometry":{"type":"Point","coordinates":[-70.69466385121173,-33.278506116770345]},"properties":{"TIPO":"AVISO","CODIGO":"DF202671818861","COD_AVISO":1057204151,"DIRECCION":"LOT.SN.P.DE CHICUREO P24                      ","FALLA":"OBS LARI: SE LLAMA AL FONO EST","DESC_EVENTO":"prueba","COD_EVENTO":"DF202671818861","FECHA_REPOSICION":"29-09-2026 19:59","FECHA_INI":"29-09-2026 14:59","id_alim":2525,"numero_cliente":1424668,"ID_AVISO":"500ck00001DEDjsAAH"}},{"type":"Feature","geometry":{"type":"Point","coordinates":[-70.55549054686693,-33.423725990320165]},"properties":{"TIPO":"AVISO","CODIGO":"DF202671818806","COD_AVISO":1057157309,"DIRECCION":"ALEJANDRO FLEMING 7315 ","FALLA":"NO GEOREFERENCIADON CLIENTE 44","DESC_EVENTO":"prueba","COD_EVENTO":"DF202671818806","FECHA_REPOSICION":"29-09-2026 18:50","FECHA_INI":"29-09-2026 13:50","id_alim":2912,"numero_cliente":444972,"ID_AVISO":"500ck00001DDBlwAAH"}},{"type":"Feature","geometry":{"type":"Point","coordinates":[-70.70978325486838,-33.44364056577018]},"properties":{"TIPO":"AVISO","CODIGO":"DF202671818615","COD_AVISO":1057005527,"DIRECCION":"SALERNO 625 ","FALLA":"TEN Actualizado a 29/09/2026 1","DESC_EVENTO":"prueba","COD_EVENTO":"DF202671818615","FECHA_REPOSICION":"29-09-2026 18:24","FECHA_INI":"29-09-2026 10:24","id_alim":2012,"numero_cliente":9087,"ID_AVISO":"500ck00001DB3iqAAD"}},{"type":"Feature","geometry":{"type":"Point","coordinates":[-70.64081297209397,-33.44375103623455]},"properties":{"TIPO":"AVISO","CODIGO":"DF202671818931","COD_AVISO":1057255982,"DIRECCION":"AVDA. LOS POZOS DEPTO 21251 ","FALLA":"Dirección: AVD LOS POZOS 21251","DESC_EVENTO":"prueba","COD_EVENTO":"DF202671818931","FECHA_REPOSICION":"29-09-2026 21:21","FECHA_INI":"29-09-2026 16:21","id_alim":1811,"numero_cliente":3272964,"ID_AVISO":"500ck00001DDWm8AAH"}},{"type":"Feature","geometry":{"type":"Point","coordinates":[-70.76371368156218,-33.56018015732106]},"properties":{"TIPO":"AVISO","CODIGO":"DF202671818833","COD_AVISO":1057173657,"DIRECCION":"PUERTA DEL VIENTO 2891 C/ 17 ","FALLA":"Dir: La corriente tiene difere","DESC_EVENTO":"prueba","COD_EVENTO":"DF202671818833","FECHA_REPOSICION":"29-09-2026 19:14","FECHA_INI":"29-09-2026 14:14","id_alim":3412,"numero_cliente":3341290,"ID_AVISO":"500ck00001DDt8MAAT"}},{"type":"Feature","geometry":{"type":"Point","coordinates":[-70.6482360020141,-33.46835900026358]},"properties":{"TIPO":"AVISO","CODIGO":"DF202671818882","COD_AVISO":1057223236,"DIRECCION":"GENERAL GANA 1063 TR B DP 2610  ","FALLA":"--","DESC_EVENTO":"prueba","COD_EVENTO":"DF202671818882","FECHA_REPOSICION":"29-09-2026 20:27","FECHA_INI":"29-09-2026 15:27","id_alim":1217,"numero_cliente":3299027,"ID_AVISO":"500ck00001DDmYVAA1"}},{"type":"Feature","geometry":{"type":"Point","coordinates":[-70.69531026538804,-33.46544099476105]},"properties":{"TIPO":"AVISO","CODIGO":"DF202671818932","COD_AVISO":1057257804,"DIRECCION":"8 DE ENERO 4424 ","FALLA":"null Comuna: ESTACION CENTRAL","DESC_EVENTO":"prueba","COD_EVENTO":"DF202671818932","FECHA_REPOSICION":"29-09-2026 21:22","FECHA_INI":"29-09-2026 16:22","id_alim":2224,"numero_cliente":3430464,"ID_AVISO":"500ck00001DEH4oAAH"}},{"type":"Feature","geometry":{"type":"Point","coordinates":[-70.64383391674639,-33.40874330057366]},"properties":{"TIPO":"AVISO","CODIGO":"DF202671818866","COD_AVISO":1057208391,"DIRECCION":"RECOLETA 1760 DP 204 ","FALLA":"null Comuna: RECOLETA","DESC_EVENTO":"prueba","COD_EVENTO":"DF202671818866","FECHA_REPOSICION":"29-09-2026 20:05","FECHA_INI":"29-09-2026 15:05","id_alim":1754,"numero_cliente":3330053,"ID_AVISO":"500ck00001DD5RUAA1"}},{"type":"Feature","geometry":{"type":"Point","coordinates":[-70.74498329765606,-33.41789222278388]},"properties":{"TIPO":"AVISO","CODIGO":"DF202671818830","COD_AVISO":1057143045,"DIRECCION":"LUIS LAZZARINI 7694 ","FALLA":"Nombre FABIOLA QUILAQUEORUT  1","DESC_EVENTO":"prueba","COD_EVENTO":"DF202671818830","FECHA_REPOSICION":"29-09-2026 18:30","FECHA_INI":"29-09-2026 13:30","id_alim":412,"numero_cliente":371451,"ID_AVISO":"500ck00001DChDEAA1"}},{"type":"Feature","geometry":{"type":"Point","coordinates":[-70.6874661123434,-33.428631236514434]},"properties":{"TIPO":"AVISO","CODIGO":"DF202671818744","COD_AVISO":1057100910,"DIRECCION":"JUAN DE BARROS 3885 TR D DP 2211  ","FALLA":"TEN Actualizado a 29/09/2026 2","DESC_EVENTO":"prueba","COD_EVENTO":"DF202671818744","FECHA_REPOSICION":"29-09-2026 20:28","FECHA_INI":"29-09-2026 12:28","id_alim":321,"numero_cliente":3311154,"ID_AVISO":"500ck00001DCLNkAAP"}},{"type":"Feature","geometry":{"type":"Point","coordinates":[-70.53283751958858,-33.42222523882808]},"properties":{"TIPO":"AVISO","CODIGO":"DF202671818887","COD_AVISO":1057225304,"DIRECCION":"ALEJANDRO FLEMING 9257 ","FALLA":"Telefono de contacto FC/992737","DESC_EVENTO":"prueba","COD_EVENTO":"DF202671818887","FECHA_REPOSICION":"29-09-2026 20:31","FECHA_INI":"29-09-2026 15:31","id_alim":2914,"numero_cliente":175617,"ID_AVISO":"500ck00001DEGdCAAX"}},{"type":"Feature","geometry":{"type":"Point","coordinates":[-70.67516201468985,-33.370794117486675]},"properties":{"TIPO":"AVISO","CODIGO":"DF202671818785","COD_AVISO":1057135982,"DIRECCION":"TANGER 5827 ","FALLA":"Telefono de contacto FC/954480","DESC_EVENTO":"prueba","COD_EVENTO":"DF202671818785","FECHA_REPOSICION":"29-09-2026 18:19","FECHA_INI":"29-09-2026 13:19","id_alim":1424,"numero_cliente":353813,"ID_AVISO":"500ck00001DCtnhAAD"}},{"type":"Feature","geometry":{"type":"Point","coordinates":[-70.36457562118211,-33.33644591749738]},"properties":{"TIPO":"AVISO","CODIGO":"DF202671818888","COD_AVISO":1057225685,"DIRECCION":"CNO A LA DISPUTADA PARCELA 83 ","FALLA":"Dir: Se incendió el transforma","DESC_EVENTO":"prueba","COD_EVENTO":"DF202671818888","FECHA_REPOSICION":"29-09-2026 20:32","FECHA_INI":"29-09-2026 15:32","id_alim":1024,"numero_cliente":1557433,"ID_AVISO":"500ck00001DEFCeAAP"}},{"type":"Feature","geometry":{"type":"Point","coordinates":[-70.6817601420165,-33.431772071702795]},"properties":{"TIPO":"AVISO","CODIGO":"DF202671818876","COD_AVISO":1057218468,"DIRECCION":"PATRICIO LYNCH 970 B ","FALLA":"Dir: Un camion se llevó la cue","DESC_EVENTO":"prueba","COD_EVENTO":"DF202671818876","FECHA_REPOSICION":"29-09-2026 20:21","FECHA_INI":"29-09-2026 15:21","id_alim":321,"numero_cliente":54433,"ID_AVISO":"500ck00001DDMxvAAH"}},{"type":"Feature","geometry":{"type":"Point","coordinates":[-70.6551859393495,-33.38063536014306]},"properties":{"TIPO":"AVISO","CODIGO":"DF202671818739","COD_AVISO":1057097510,"DIRECCION":"YACARE 1150 ","FALLA":"TEN Actualizado a 29/09/2026 2","DESC_EVENTO":"prueba","COD_EVENTO":"DF202671818739","FECHA_REPOSICION":"29-09-2026 20:26","FECHA_INI":"29-09-2026 12:26","id_alim":2321,"numero_cliente":308778,"ID_AVISO":"500ck00001DCWuEAAX"}},{"type":"Feature","geometry":{"type":"Point","coordinates":[-70.6206529351506,-33.48279803154344]},"properties":{"TIPO":"AVISO","CODIGO":"DF202671818918","COD_AVISO":1057250930,"DIRECCION":"V. MACKENNA /I. RIQUELME ","FALLA":">>CORREWSPONDE A SEMAFOROS APA","DESC_EVENTO":"prueba","COD_EVENTO":"DF202671818918","FECHA_REPOSICION":"29-09-2026 21:11","FECHA_INI":"29-09-2026 16:11","id_alim":1941,"numero_cliente":1362318,"ID_AVISO":"500ck00001DDrAOAA1"}},{"type":"Feature","geometry":{"type":"Point","coordinates":[-70.87845460533366,-33.28101173549675]},"properties":{"TIPO":"AVISO","CODIGO":"DF202671818857","COD_AVISO":1057196958,"DIRECCION":"BAQUEDANO 853 A LOC/ 17","FALLA":"ConnID: 0ae603b593acb5b7Nombre","DESC_EVENTO":"prueba","COD_EVENTO":"DF202671818857","FECHA_REPOSICION":"29-09-2026 19:51","FECHA_INI":"29-09-2026 14:51","id_alim":7411,"numero_cliente":3170021,"ID_AVISO":"500ck00001DDq4FAAT"}},{"type":"Feature","geometry":{"type":"Point","coordinates":[-70.67906497215928,-33.35408775928594]},"properties":{"TIPO":"AVISO","CODIGO":"DF202671818819","COD_AVISO":1057168404,"DIRECCION":"LOS DOMINICOS 7141 ","FALLA":"Obs lari 29-09-2026 16:23 hrs ","DESC_EVENTO":"prueba","COD_EVENTO":"DF202671818819","FECHA_REPOSICION":"29-09-2026 19:07","FECHA_INI":"29-09-2026 14:07","id_alim":3215,"numero_cliente":2764557,"ID_AVISO":"500ck00001DCr4HAAT"}},{"type":"Feature","geometry":{"type":"Point","coordinates":[-70.76796951291121,-33.48383691935262]},"properties":{"TIPO":"AVISO","CODIGO":"DF202671818613","COD_AVISO":1057003189,"DIRECCION":"PJE.BAT. RANCAGUA 560 ","FALLA":"TEN Actualizado a 29/09/2026 1","DESC_EVENTO":"prueba","COD_EVENTO":"DF202671818613","FECHA_REPOSICION":"29-09-2026 18:23","FECHA_INI":"29-09-2026 10:23","id_alim":2735,"numero_cliente":1548700,"ID_AVISO":"500ck00001DBRwFAAX"}},{"type":"Feature","geometry":{"type":"Point","coordinates":[-70.57759477071103,-33.45409256744156]},"properties":{"TIPO":"AVISO","CODIGO":"DF202671818836","COD_AVISO":1057175822,"DIRECCION":"DIAGONAL ORIENTE 5252  ","FALLA":">>DOMICILIO SIN SERVICIO POR A","DESC_EVENTO":"prueba","COD_EVENTO":"DF202671818836","FECHA_REPOSICION":"29-09-2026 19:18","FECHA_INI":"29-09-2026 14:18","id_alim":922,"numero_cliente":651222,"ID_AVISO":"500ck00001DD8eZAAT"}},{"type":"Feature","geometry":{"type":"Point","coordinates":[-70.54314363964714,-33.46836464519006]},"properties":{"TIPO":"AVISO","CODIGO":"DF202671818859","COD_AVISO":1057202836,"DIRECCION":"LAGO COCHRANE 1326 ","FALLA":"TEN Actualizado a 29/09/2026 2","DESC_EVENTO":"prueba","COD_EVENTO":"DF202671818859","FECHA_REPOSICION":"29-09-2026 20:02","FECHA_INI":"29-09-2026 14:58","id_alim":944,"numero_cliente":114282,"ID_AVISO":"500ck00001DDxIeAAL"}},{"type":"Feature","geometry":{"type":"Point","coordinates":[-70.5423154022988,-33.34639574853938]},"properties":{"TIPO":"AVISO","CODIGO":"DF202671818930","COD_AVISO":1057256345,"DIRECCION":"CALLE  CAM. LOS TRAPENSES  2997     LOCAL 3 ","FALLA":"Telefono de contacto FC/981634","DESC_EVENTO":"prueba","COD_EVENTO":"DF202671818930","FECHA_REPOSICION":"29-09-2026 21:20","FECHA_INI":"29-09-2026 16:20","id_alim":3022,"numero_cliente":2593560,"ID_AVISO":"500ck00001DELL8AAP"}},{"type":"Feature","geometry":{"type":"Point","coordinates":[-70.53115052544702,-33.41659723386154]},"properties":{"TIPO":"AVISO","CODIGO":"DF202671818723","COD_AVISO":1057085410,"DIRECCION":"YOLANDA 9419 A13 ","FALLA":"DV 29/09/2026 JUAN CARLOS SIN ","DESC_EVENTO":"prueba","COD_EVENTO":"DF202671818723","FECHA_REPOSICION":"29-09-2026 20:05","FECHA_INI":"29-09-2026 12:05","id_alim":2914,"numero_cliente":1013929,"ID_AVISO":"500ck00001DB8CxAAL"}},{"type":"Feature","geometry":{"type":"Point","coordinates":[-70.68447112842513,-33.4511051574566]},"properties":{"TIPO":"AVISO","CODIGO":"DF202671818860","COD_AVISO":1057203883,"DIRECCION":"OBISPO MANUEL UMANA SALINAS 54 C/ 5 ","FALLA":"Telefono de contacto FC/964741","DESC_EVENTO":"prueba","COD_EVENTO":"DF202671818860","FECHA_REPOSICION":"29-09-2026 19:58","FECHA_INI":"29-09-2026 14:58","id_alim":2241,"numero_cliente":96859,"ID_AVISO":"500ck00001DE7UuAAL"}},{"type":"Feature","geometry":{"type":"Point","coordinates":[-70.54133054728634,-33.45254861270405]},"properties":{"TIPO":"AVISO","CODIGO":"DF202671818625","COD_AVISO":1057017517,"DIRECCION":"LA FORJA 8770 ","FALLA":"TEN Actualizado a 29/09/2026 1","DESC_EVENTO":"prueba","COD_EVENTO":"DF202671818625","FECHA_REPOSICION":"29-09-2026 18:39","FECHA_INI":"29-09-2026 10:39","id_alim":2911,"numero_cliente":2500217,"ID_AVISO":"500ck00001DBKWuAAP"}},{"type":"Feature","geometry":{"type":"Point","coordinates":[-70.69114122326195,-33.45355361602784]},"properties":{"TIPO":"AVISO","CODIGO":"DF202671818908","COD_AVISO":1057240705,"DIRECCION":"MANUEL THOMPSON 4074 ","FALLA":"Telefono de contacto FC/945300","DESC_EVENTO":"prueba","COD_EVENTO":"DF202671818908","FECHA_REPOSICION":"29-09-2026 20:54","FECHA_INI":"29-09-2026 15:54","id_alim":2212,"numero_cliente":367356,"ID_AVISO":"500ck00001DEgozAAD"}},{"type":"Feature","geometry":{"type":"Point","coordinates":[-70.80879875507982,-33.50287710843906]},"properties":{"TIPO":"AVISO","CODIGO":"DF202671818786","COD_AVISO":1057108102,"DIRECCION":"CAMINO A RINCONADA 4477  ","FALLA":"TEN Actualizado a 29/09/2026 1","DESC_EVENTO":"prueba","COD_EVENTO":"DF202671818786","FECHA_REPOSICION":"29-09-2026 19:38","FECHA_INI":"29-09-2026 12:38","id_alim":3335,"numero_cliente":817361,"ID_AVISO":"500ck00001DBsfGAAT"}},{"type":"Feature","geometry":{"type":"Point","coordinates":[-70.705295310627,-33.4730682211932]},"properties":{"TIPO":"AVISO","CODIGO":"DF202671818855","COD_AVISO":1057197930,"DIRECCION":"LUIS INFANTE CERDA 6058 ","FALLA":"13459579-5 motivo:Cliente se a","DESC_EVENTO":"prueba","COD_EVENTO":"DF202671818855","FECHA_REPOSICION":"29-09-2026 19:50","FECHA_INI":"29-09-2026 14:50","id_alim":2231,"numero_cliente":410037,"ID_AVISO":"500ck00001DE6IbAAL"}},{"type":"Feature","geometry":{"type":"Point","coordinates":[-70.74427836313386,-33.41608255105414]},"properties":{"TIPO":"AVISO","CODIGO":"DF202671818768","COD_AVISO":1057120953,"DIRECCION":"GRACIOSA 7643 ","FALLA":"TEN Actualizado a 29/09/2026 2","DESC_EVENTO":"prueba","COD_EVENTO":"DF202671818768","FECHA_REPOSICION":"29-09-2026 20:56","FECHA_INI":"29-09-2026 12:56","id_alim":421,"numero_cliente":819044,"ID_AVISO":"500ck00001DCXvJAAX"}},{"type":"Feature","geometry":{"type":"Point","coordinates":[-70.68814204385048,-33.38623339174091]},"properties":{"TIPO":"AVISO","CODIGO":"DF202671818606","COD_AVISO":1056999610,"DIRECCION":"PRESIDENTE ROOSEVELT 4651 ","FALLA":"TEN Actualizado a 29/09/2026 1","DESC_EVENTO":"prueba","COD_EVENTO":"DF202671818606","FECHA_REPOSICION":"29-09-2026 18:17","FECHA_INI":"29-09-2026 10:17","id_alim":115,"numero_cliente":217635,"ID_AVISO":"500ck00001DAbIKAA1"}},{"type":"Feature","geometry":{"type":"Point","coordinates":[-70.65941798724022,-33.436197142766225]},"properties":{"TIPO":"AVISO","CODIGO":"DF202671818967","COD_AVISO":1057275013,"DIRECCION":"CATEDRAL 1582 DP 507 ","FALLA":"Cliente: JoseTeléfono: RUT: Fa","DESC_EVENTO":"prueba","COD_EVENTO":"DF202671818967","FECHA_REPOSICION":"29-09-2026 21:54","FECHA_INI":"29-09-2026 16:54","id_alim":3111,"numero_cliente":2539084,"ID_AVISO":"500ck00001DEz8UAAT"}},{"type":"Feature","geometry":{"type":"Point","coordinates":[-70.64124897665845,-33.44369290410171]},"properties":{"TIPO":"AVISO","CODIGO":"DF202671818890","COD_AVISO":1057226916,"DIRECCION":"CURICO 424 DP 1619 ","FALLA":"Telefono de contacto FC/983702","DESC_EVENTO":"prueba","COD_EVENTO":"DF202671818890","FECHA_REPOSICION":"29-09-2026 20:33","FECHA_INI":"29-09-2026 15:33","id_alim":1811,"numero_cliente":2674673,"ID_AVISO":"500ck00001DDlePAAT"}},{"type":"Feature","geometry":{"type":"Point","coordinates":[-70.71625116013439,-33.41007039842731]},"properties":{"TIPO":"AVISO","CODIGO":"DF202671818752","COD_AVISO":1057107788,"DIRECCION":"PASAJE I 2718 ","FALLA":"TEN Actualizado a 29/09/2026 2","DESC_EVENTO":"prueba","COD_EVENTO":"DF202671818752","FECHA_REPOSICION":"29-09-2026 20:42","FECHA_INI":"29-09-2026 12:42","id_alim":444,"numero_cliente":544827,"ID_AVISO":"500ck00001DChzGAAT"}},{"type":"Feature","geometry":{"type":"Point","coordinates":[-70.65830400511965,-33.43768479701656]},"properties":{"TIPO":"AVISO","CODIGO":"DF202671818794","COD_AVISO":1057143409,"DIRECCION":"SAN MARTIN 366 DP 502 ","FALLA":"--","DESC_EVENTO":"prueba","COD_EVENTO":"DF202671818794","FECHA_REPOSICION":"29-09-2026 18:29","FECHA_INI":"29-09-2026 13:29","id_alim":3111,"numero_cliente":2769015,"ID_AVISO":"500ck00001DCvxaAAD"}},{"type":"Feature","geometry":{"type":"Point","coordinates":[-70.73432347163596,-33.49212814619623]},"properties":{"TIPO":"AVISO","CODIGO":"DF202671818971","COD_AVISO":1057276571,"DIRECCION":"PJE.JOSE MORALEDA  3725 ","FALLA":"--","DESC_EVENTO":"prueba","COD_EVENTO":"DF202671818971","FECHA_REPOSICION":"29-09-2026 21:57","FECHA_INI":"29-09-2026 16:57","id_alim":2727,"numero_cliente":1324215,"ID_AVISO":"500ck00001DEZhkAAH"}},{"type":"Feature","geometry":{"type":"Point","coordinates":[-70.643989169229,-33.509903845396884]},"properties":{"TIPO":"AVISO","CODIGO":"DF202671818660","COD_AVISO":1057042639,"DIRECCION":"CARLOS MONDACA 659 ","FALLA":"ATENDER DESPUES DE LAS 17 HRS.","DESC_EVENTO":"prueba","COD_EVENTO":"DF202671818660","FECHA_REPOSICION":"29-09-2026 19:09","FECHA_INI":"29-09-2026 11:09","id_alim":536,"numero_cliente":244149,"ID_AVISO":"500ck00001DB2InAAL"}},{"type":"Feature","geometry":{"type":"Point","coordinates":[-70.62460401448764,-33.46916305190069]},"properties":{"TIPO":"AVISO","CODIGO":"DF202671818466","COD_AVISO":1056892591,"DIRECCION":"AV VICUNA MACKENNA 2289A T/ 1 D/ 2104 ","FALLA":"TEN Actualizado a 29/09/2026 2","DESC_EVENTO":"prueba","COD_EVENTO":"DF202671818466","FECHA_REPOSICION":"29-09-2026 20:51","FECHA_INI":"29-09-2026 06:51","id_alim":1934,"numero_cliente":2913205,"ID_AVISO":"500ck00001D8lBSAAZ"}},{"type":"Feature","geometry":{"type":"Point","coordinates":[-70.63083195918547,-33.45819370766165]},"properties":{"TIPO":"AVISO","CODIGO":"DF202671818771","COD_AVISO":1057120642,"DIRECCION":"VICTORIA 151 ","FALLA":"TEN Actualizado a 29/09/2026 2","DESC_EVENTO":"prueba","COD_EVENTO":"DF202671818771","FECHA_REPOSICION":"29-09-2026 20:10","FECHA_INI":"29-09-2026 13:00","id_alim":1945,"numero_cliente":1086575,"ID_AVISO":"500ck00001DCujTAAT"}},{"type":"Feature","geometry":{"type":"Point","coordinates":[-70.60673199453392,-33.53804573838307]},"properties":{"TIPO":"AVISO","CODIGO":"DF202671818675","COD_AVISO":1057049668,"DIRECCION":"ANDACOLLO 1383 ","FALLA":"TEN Actualizado a 29/09/2026 2","DESC_EVENTO":"prueba","COD_EVENTO":"DF202671818675","FECHA_REPOSICION":"29-09-2026 20:41","FECHA_INI":"29-09-2026 11:18","id_alim":2684,"numero_cliente":117464,"ID_AVISO":"500ck00001DB4VtAAL"}},{"type":"Feature","geometry":{"type":"Point","coordinates":[-70.88459068336891,-33.29083722114939]},"properties":{"TIPO":"AVISO","CODIGO":"DF202671818736","COD_AVISO":1057094258,"DIRECCION":"COLLIGUAY PONIENTE 493 ","FALLA":"TEN Actualizado a 29/09/2026 2","DESC_EVENTO":"prueba","COD_EVENTO":"DF202671818736","FECHA_REPOSICION":"29-09-2026 20:19","FECHA_INI":"29-09-2026 12:19","id_alim":7412,"numero_cliente":2954721,"ID_AVISO":"500ck00001DCtNNAA1"}},{"type":"Feature","geometry":{"type":"Point","coordinates":[-70.70146421809082,-33.4303599081285]},"properties":{"TIPO":"AVISO","CODIGO":"DF202671818877","COD_AVISO":1057217861,"DIRECCION":"EDUARDO CHARME 1551 ","FALLA":"G. GAETE/ SE REQUIERE CAPACHO ","DESC_EVENTO":"prueba","COD_EVENTO":"DF202671818877","FECHA_REPOSICION":"29-09-2026 20:22","FECHA_INI":"29-09-2026 15:22","id_alim":2041,"numero_cliente":54709,"ID_AVISO":"500ck00001DDBj9AAH"}},{"type":"Feature","geometry":{"type":"Point","coordinates":[-70.78301371237757,-33.51540814164846]},"properties":{"TIPO":"AVISO","CODIGO":"DF202671818368","COD_AVISO":1056805983,"DIRECCION":"PINTUE 1724 ","FALLA":"TEN Actualizado a 29/09/2026 1","DESC_EVENTO":"prueba","COD_EVENTO":"DF202671818368","FECHA_REPOSICION":"29-09-2026 19:24","FECHA_INI":"28-09-2026 20:23","id_alim":3323,"numero_cliente":1102374,"ID_AVISO":"500ck00001D72JjAAJ"}},{"type":"Feature","geometry":{"type":"Point","coordinates":[-70.65720911863683,-33.50860980733863]},"properties":{"TIPO":"AVISO","CODIGO":"DF202671818820","COD_AVISO":1057189270,"DIRECCION":"SEPTIMA AVENIDA 1128 ","FALLA":"TICKET CON DOS AVISOSDIRECCION","DESC_EVENTO":"prueba","COD_EVENTO":"DF202671818820","FECHA_REPOSICION":"29-09-2026 18:22","FECHA_INI":"29-09-2026 14:07","id_alim":524,"numero_cliente":827118,"ID_AVISO":"500ck00001DDgb8AAD"}},{"type":"Feature","geometry":{"type":"Point","coordinates":[-70.76640619963459,-33.324908082631914]},"properties":{"TIPO":"AVISO","CODIGO":"DF202671818765","COD_AVISO":1057116650,"DIRECCION":"SAN BENITO 790 ED B DP 305  ","FALLA":"TEN Actualizado a 29/09/2026 2","DESC_EVENTO":"prueba","COD_EVENTO":"DF202671818765","FECHA_REPOSICION":"29-09-2026 20:50","FECHA_INI":"29-09-2026 12:50","id_alim":5641,"numero_cliente":3382988,"ID_AVISO":"500ck00001DCl1yAAD"}},{"type":"Feature","geometry":{"type":"Point","coordinates":[-70.66824419193068,-33.5109628351926]},"properties":{"TIPO":"AVISO","CODIGO":"DF202671818933","COD_AVISO":1057258305,"DIRECCION":"BRIONES LUCO 957 DEPTO 605 ","FALLA":">>NO ASIGNAR, FONO DE CONTACTO","DESC_EVENTO":"prueba","COD_EVENTO":"DF202671818933","FECHA_REPOSICION":"29-09-2026 21:23","FECHA_INI":"29-09-2026 16:23","id_alim":534,"numero_cliente":3486648,"ID_AVISO":"500ck00001DDPRRAA5"}},{"type":"Feature","geometry":{"type":"Point","coordinates":[-70.67347116622827,-33.49174224669809]},"properties":{"TIPO":"AVISO","CODIGO":"DF202671818764","COD_AVISO":1057115148,"DIRECCION":"BERENICE 4990 ","FALLA":"TEN Actualizado a 29/09/2026 2","DESC_EVENTO":"prueba","COD_EVENTO":"DF202671818764","FECHA_REPOSICION":"29-09-2026 20:50","FECHA_INI":"29-09-2026 12:50","id_alim":2244,"numero_cliente":899209,"ID_AVISO":"500ck00001DCvDvAAL"}},{"type":"Feature","geometry":{"type":"Point","coordinates":[-70.62439101261819,-33.47595737776444]},"properties":{"TIPO":"AVISO","CODIGO":"DF202671818870","COD_AVISO":1057212883,"DIRECCION":"PERGOLEZZI      2859 ","FALLA":">>NO ASIGNAR, FONO DE CONTACTO","DESC_EVENTO":"prueba","COD_EVENTO":"DF202671818870","FECHA_REPOSICION":"29-09-2026 20:12","FECHA_INI":"29-09-2026 15:12","id_alim":1935,"numero_cliente":557433,"ID_AVISO":"500ck00001DDZBlAAP"}},{"type":"Feature","geometry":{"type":"Point","coordinates":[-70.690157110969,-33.43611956858427]},"properties":{"TIPO":"AVISO","CODIGO":"DF202671818823","COD_AVISO":1057170451,"DIRECCION":"SAN GUMERCINDO 3955 ","FALLA":"Telefono de contacto FC/992290","DESC_EVENTO":"prueba","COD_EVENTO":"DF202671818823","FECHA_REPOSICION":"29-09-2026 19:10","FECHA_INI":"29-09-2026 14:10","id_alim":321,"numero_cliente":370497,"ID_AVISO":"500ck00001DDpSvAAL"}},{"type":"Feature","geometry":{"type":"Point","coordinates":[-70.64385407535795,-33.50631985443623]},"properties":{"TIPO":"AVISO","CODIGO":"DF202671818878","COD_AVISO":1057218515,"DIRECCION":"CAL CARMEN MENA 621 ","FALLA":"cliente informa domicilio sin ","DESC_EVENTO":"prueba","COD_EVENTO":"DF202671818878","FECHA_REPOSICION":"29-09-2026 20:23","FECHA_INI":"29-09-2026 15:23","id_alim":1949,"numero_cliente":3806138,"ID_AVISO":"500ck00001DDMl4AAH"}},{"type":"Feature","geometry":{"type":"Point","coordinates":[-70.55468985668348,-33.53573513571065]},"properties":{"TIPO":"AVISO","CODIGO":"DF202671818760","COD_AVISO":1057114609,"DIRECCION":"SANTA VICTORIA 9448 DP 610  ","FALLA":"TEN Actualizado a 29/09/2026 2","DESC_EVENTO":"prueba","COD_EVENTO":"DF202671818760","FECHA_REPOSICION":"29-09-2026 20:47","FECHA_INI":"29-09-2026 12:47","id_alim":813,"numero_cliente":3569331,"ID_AVISO":"500ck00001DC6KoAAL"}},{"type":"Feature","geometry":{"type":"Point","coordinates":[-70.65267693425244,-33.37885738327841]},"properties":{"TIPO":"AVISO","CODIGO":"DF202671818674","COD_AVISO":1057085882,"DIRECCION":"PERNAS 1140 ","FALLA":"TEN Actualizado a 29/09/2026 1","DESC_EVENTO":"prueba","COD_EVENTO":"DF202671818674","FECHA_REPOSICION":"29-09-2026 19:05","FECHA_INI":"29-09-2026 11:18","id_alim":2321,"numero_cliente":308661,"ID_AVISO":"500ck00001DBtPuAAL"}},{"type":"Feature","geometry":{"type":"Point","coordinates":[-70.59883576832617,-33.411029668962776]},"properties":{"TIPO":"AVISO","CODIGO":"DF202671818959","COD_AVISO":1057270852,"DIRECCION":"CARMENCITA 220 D 604 ","FALLA":"--","DESC_EVENTO":"prueba","COD_EVENTO":"DF202671818959","FECHA_REPOSICION":"29-09-2026 21:46","FECHA_INI":"29-09-2026 16:46","id_alim":2113,"numero_cliente":1543117,"ID_AVISO":"500ck00001DDleuAAD"}},{"type":"Feature","geometry":{"type":"Point","coordinates":[-70.6944841642688,-33.41805223070123]},"properties":{"TIPO":"AVISO","CODIGO":"DF202671818834","COD_AVISO":1057175470,"DIRECCION":"PJE MARIA RAMOS 4419 ","FALLA":"Telefono de contacto FC/958808","DESC_EVENTO":"prueba","COD_EVENTO":"DF202671818834","FECHA_REPOSICION":"29-09-2026 19:17","FECHA_INI":"29-09-2026 14:17","id_alim":311,"numero_cliente":414197,"ID_AVISO":"500ck00001DDxezAAD"}},{"type":"Feature","geometry":{"type":"Point","coordinates":[-70.86717953536687,-33.29708253912877]},"properties":{"TIPO":"AVISO","CODIGO":"DF202671818925","COD_AVISO":1057246336,"DIRECCION":"CAM LO ECHEVERS KM 14 ","FALLA":"Manuel fono: 984746215 CLIENTE","DESC_EVENTO":"prueba","COD_EVENTO":"DF202671818925","FECHA_REPOSICION":"29-09-2026 20:03","FECHA_INI":"29-09-2026 16:03","id_alim":2833,"numero_cliente":2655986,"ID_AVISO":"500ck00001DERdQAAX"}},{"type":"Feature","geometry":{"type":"Point","coordinates":[-70.65528504529097,-33.434625403685125]},"properties":{"TIPO":"AVISO","CODIGO":"DF202671818784","COD_AVISO":1057134702,"DIRECCION":"SANTO DOMINGO 1220 DP 1702 ","FALLA":"null Comuna: SANTIAGO","DESC_EVENTO":"prueba","COD_EVENTO":"DF202671818784","FECHA_REPOSICION":"29-09-2026 18:17","FECHA_INI":"29-09-2026 13:17","id_alim":1618,"numero_cliente":2795139,"ID_AVISO":"500ck00001DDJg0AAH"}},{"type":"Feature","geometry":{"type":"Point","coordinates":[-70.69800629387306,-33.46549862765025]},"properties":{"TIPO":"AVISO","CODIGO":"DF202671818955","COD_AVISO":1057268108,"DIRECCION":"RAMON RIVAS 536 ","FALLA":"--","DESC_EVENTO":"prueba","COD_EVENTO":"DF202671818955","FECHA_REPOSICION":"29-09-2026 21:40","FECHA_INI":"29-09-2026 16:40","id_alim":2224,"numero_cliente":721942,"ID_AVISO":"500ck00001DEnc6AAD"}},{"type":"Feature","geometry":{"type":"Point","coordinates":[-70.88186260438172,-33.29665693927703]},"properties":{"TIPO":"AVISO","CODIGO":"DF202671818927","COD_AVISO":1057255025,"DIRECCION":"CAMINO LAS FLORES 934 C/ 13 ","FALLA":"ConnID: 0ae603b593accf92Nombre","DESC_EVENTO":"prueba","COD_EVENTO":"DF202671818927","FECHA_REPOSICION":"29-09-2026 21:18","FECHA_INI":"29-09-2026 16:18","id_alim":7412,"numero_cliente":3380020,"ID_AVISO":"500ck00001DEeXSAA1"}},{"type":"Feature","geometry":{"type":"Point","coordinates":[-70.62460401448764,-33.46916305190069]},"properties":{"TIPO":"AVISO","CODIGO":"DF202671818466","COD_AVISO":1056892007,"DIRECCION":"AV VICUNA MACKENNA 2289A T/ 1 D/ 2104 ","FALLA":"TEN Actualizado a 29/09/2026 2","DESC_EVENTO":"prueba","COD_EVENTO":"DF202671818466","FECHA_REPOSICION":"29-09-2026 20:51","FECHA_INI":"29-09-2026 06:51","id_alim":1934,"numero_cliente":2913216,"ID_AVISO":"500ck00001D92ytAAB"}},{"type":"Feature","geometry":{"type":"Point","coordinates":[-70.62722180639634,-33.39429232228456]},"properties":{"TIPO":"AVISO","CODIGO":"DF202671818502","COD_AVISO":1056914583,"DIRECCION":"LOS ZAPADORES 141 ","FALLA":"TEN Actualizado a 29/09/2026 1","DESC_EVENTO":"prueba","COD_EVENTO":"DF202671818502","FECHA_REPOSICION":"29-09-2026 18:20","FECHA_INI":"29-09-2026 08:16","id_alim":2332,"numero_cliente":1159343,"ID_AVISO":"500ck00001D9e0DAAR"}},{"type":"Feature","geometry":{"type":"Point","coordinates":[-70.60126383264368,-33.47534252156376]},"properties":{"TIPO":"AVISO","CODIGO":"DF202671818948","COD_AVISO":1057265408,"DIRECCION":"EXEQUIEL FERNANDEZ 2464 ","FALLA":">>DOMICILIO SIN SERVICIO.<<Tel","DESC_EVENTO":"prueba","COD_EVENTO":"DF202671818948","FECHA_REPOSICION":"29-09-2026 21:35","FECHA_INI":"29-09-2026 16:35","id_alim":1825,"numero_cliente":346023,"ID_AVISO":"500ck00001DE2k4AAD"}},{"type":"Feature","geometry":{"type":"Point","coordinates":[-70.79698516265924,-33.21636653033237]},"properties":{"TIPO":"AVISO","CODIGO":"DF202671818949","COD_AVISO":1057265760,"DIRECCION":"CAMINO SANTA CAROLINA S/N PARC 17 LOTE 1 SIT/ 4D ","FALLA":"Telefono de contacto FC/995090","DESC_EVENTO":"prueba","COD_EVENTO":"DF202671818949","FECHA_REPOSICION":"29-09-2026 21:36","FECHA_INI":"29-09-2026 16:36","id_alim":5516,"numero_cliente":3171107,"ID_AVISO":"500ck00001DEKSLAA5"}},{"type":"Feature","geometry":{"type":"Point","coordinates":[-70.55772761726514,-33.422720583885024]},"properties":{"TIPO":"AVISO","CODIGO":"DF202671818913","COD_AVISO":1057272144,"DIRECCION":"SANDOKAN 7122 ","FALLA":"--","DESC_EVENTO":"prueba","COD_EVENTO":"DF202671818913","FECHA_REPOSICION":"29-09-2026 21:04","FECHA_INI":"29-09-2026 16:04","id_alim":212,"numero_cliente":257535,"ID_AVISO":"500ck00001DEdg8AAD"}},{"type":"Feature","geometry":{"type":"Point","coordinates":[-70.5588334577834,-33.36008381717523]},"properties":{"TIPO":"AVISO","CODIGO":"DF202671818917","COD_AVISO":1057250644,"DIRECCION":"VIA ROJA 9615 ","FALLA":"Power OffElectrodependiente Si","DESC_EVENTO":"prueba","COD_EVENTO":"DF202671818917","FECHA_REPOSICION":"29-09-2026 21:10","FECHA_INI":"29-09-2026 16:10","id_alim":1543,"numero_cliente":312277,"ID_AVISO":"500ck00001DES1QAAX"}},{"type":"Feature","geometry":{"type":"Point","coordinates":[-70.71905915200199,-33.35137411724823]},"properties":{"TIPO":"AVISO","CODIGO":"DF202671818619","COD_AVISO":1057010845,"DIRECCION":"BOGOTA 0514  ","FALLA":"TEN Actualizado a 29/09/2026 1","DESC_EVENTO":"prueba","COD_EVENTO":"DF202671818619","FECHA_REPOSICION":"29-09-2026 18:31","FECHA_INI":"29-09-2026 10:31","id_alim":1441,"numero_cliente":1618400,"ID_AVISO":"500ck00001DBgyTAAT"}},{"type":"Feature","geometry":{"type":"Point","coordinates":[-70.7439044936725,-33.50072052194541]},"properties":{"TIPO":"AVISO","CODIGO":"DF202671818562","COD_AVISO":1056957174,"DIRECCION":"PAMELA 1157 ","FALLA":"TEN Actualizado a 29/09/2026 2","DESC_EVENTO":"prueba","COD_EVENTO":"DF202671818562","FECHA_REPOSICION":"29-09-2026 20:22","FECHA_INI":"29-09-2026 09:22","id_alim":2721,"numero_cliente":189287,"ID_AVISO":"500ck00001DAcXUAA1"}},{"type":"Feature","geometry":{"type":"Point","coordinates":[-70.79040212008279,-33.21232104493808]},"properties":{"TIPO":"AVISO","CODIGO":"DF202671818780","COD_AVISO":1057129265,"DIRECCION":"CAMINO INTERIOR PARC 5 VIVIENDA 2 ","FALLA":"OBS LARI: DOMICILIO SIN SERVIC","DESC_EVENTO":"prueba","COD_EVENTO":"DF202671818780","FECHA_REPOSICION":"29-09-2026 18:11","FECHA_INI":"29-09-2026 13:11","id_alim":5516,"numero_cliente":2781213,"ID_AVISO":"500ck00001DCvcPAAT"}},{"type":"Feature","geometry":{"type":"Point","coordinates":[-70.62522386729555,-33.402777979299735]},"properties":{"TIPO":"AVISO","CODIGO":"DF202671808630","COD_AVISO":1057013994,"DIRECCION":"","FALLA":"TEN Actualizado a 29/09/2026 1","DESC_EVENTO":"prueba","COD_EVENTO":"DF202671808630","FECHA_REPOSICION":"29-09-2026 18:30","FECHA_INI":"29-09-2026 09:30","id_alim":2332,"numero_cliente":908695,"ID_AVISO":"500ck00001DAiecAAD"}},{"type":"Feature","geometry":{"type":"Point","coordinates":[-70.63760697915373,-33.44508518450202]},"properties":{"TIPO":"AVISO","CODIGO":"DF202671818680","COD_AVISO":1057052635,"DIRECCION":"TURQUESA 337 ","FALLA":"TEN Actualizado a 29/09/2026 2","DESC_EVENTO":"prueba","COD_EVENTO":"DF202671818680","FECHA_REPOSICION":"29-09-2026 20:37","FECHA_INI":"29-09-2026 11:22","id_alim":1811,"numero_cliente":691853,"ID_AVISO":"500ck00001DC2EMAA1"}},{"type":"Feature","geometry":{"type":"Point","coordinates":[-70.6726809315041,-33.38249563422602]},"properties":{"TIPO":"AVISO","CODIGO":"DF202671818851","COD_AVISO":1057194011,"DIRECCION":"RENTERIA 1529 ","FALLA":"Telefono de contacto FC/997791","DESC_EVENTO":"prueba","COD_EVENTO":"DF202671818851","FECHA_REPOSICION":"29-09-2026 19:44","FECHA_INI":"29-09-2026 14:44","id_alim":2321,"numero_cliente":612831,"ID_AVISO":"500ck00001DEFP8AAP"}},{"type":"Feature","geometry":{"type":"Point","coordinates":[-70.65453704964146,-33.43288265079442]},"properties":{"TIPO":"AVISO","CODIGO":"DF202671818970","COD_AVISO":1057275920,"DIRECCION":"MORANDE 750 ","FALLA":"cliente tiene dos lineas del t","DESC_EVENTO":"prueba","COD_EVENTO":"DF202671818970","FECHA_REPOSICION":"29-09-2026 21:57","FECHA_INI":"29-09-2026 16:57","id_alim":3122,"numero_cliente":222192,"ID_AVISO":"500ck00001DEx3TAAT"}},{"type":"Feature","geometry":{"type":"Point","coordinates":[-70.76881569081951,-33.53107167512027]},"properties":{"TIPO":"AVISO","CODIGO":"DF202671818921","COD_AVISO":1057252340,"DIRECCION":"CARLOS REYES C.    1193 ","FALLA":"--","DESC_EVENTO":"prueba","COD_EVENTO":"DF202671818921","FECHA_REPOSICION":"29-09-2026 21:13","FECHA_INI":"29-09-2026 16:13","id_alim":3316,"numero_cliente":1162296,"ID_AVISO":"500ck00001DEgfWAAT"}},{"type":"Feature","geometry":{"type":"Point","coordinates":[-70.68209103267527,-33.3932193884364]},"properties":{"TIPO":"AVISO","CODIGO":"DF202671818892","COD_AVISO":1057228130,"DIRECCION":"AVIADOR ZANARTU 2473 ","FALLA":"Telefono de contacto FC/977980","DESC_EVENTO":"prueba","COD_EVENTO":"DF202671818892","FECHA_REPOSICION":"29-09-2026 20:35","FECHA_INI":"29-09-2026 15:35","id_alim":127,"numero_cliente":439574,"ID_AVISO":"500ck00001DE8hCAAT"}},{"type":"Feature","geometry":{"type":"Point","coordinates":[-70.6615651207866,-33.48390571557267]},"properties":{"TIPO":"AVISO","CODIGO":"DF202671818637","COD_AVISO":1057024768,"DIRECCION":"ARCANGEL 1778 ","FALLA":"CLIENTE SIN SUMINISTRO.MCO","DESC_EVENTO":"prueba","COD_EVENTO":"DF202671818637","FECHA_REPOSICION":"29-09-2026 18:48","FECHA_INI":"29-09-2026 10:48","id_alim":1214,"numero_cliente":200051,"ID_AVISO":"500ck00001DAgUvAAL"}},{"type":"Feature","geometry":{"type":"Point","coordinates":[-70.74712735718549,-33.42237832779822]},"properties":{"TIPO":"AVISO","CODIGO":"DF202671818832","COD_AVISO":1057173596,"DIRECCION":"PAPA SIME 1768 ","FALLA":"Telefono de contacto FC/957592","DESC_EVENTO":"prueba","COD_EVENTO":"DF202671818832","FECHA_REPOSICION":"29-09-2026 19:14","FECHA_INI":"29-09-2026 14:14","id_alim":423,"numero_cliente":637383,"ID_AVISO":"500ck00001DD1wYAAT"}},{"type":"Feature","geometry":{"type":"Point","coordinates":[-70.69962520770962,-33.44554004420451]},"properties":{"TIPO":"AVISO","CODIGO":"DF202671818957","COD_AVISO":1057269285,"DIRECCION":"PORTO SEGURO 4723 ","FALLA":"--","DESC_EVENTO":"prueba","COD_EVENTO":"DF202671818957","FECHA_REPOSICION":"29-09-2026 21:43","FECHA_INI":"29-09-2026 16:43","id_alim":2013,"numero_cliente":676331,"ID_AVISO":"500ck00001DEIImAAP"}},{"type":"Feature","geometry":{"type":"Point","coordinates":[-70.68332798595013,-33.38769307063712]},"properties":{"TIPO":"AVISO","CODIGO":"DF202671818837","COD_AVISO":1057177408,"DIRECCION":"APOLO 4424 ","FALLA":"--","DESC_EVENTO":"prueba","COD_EVENTO":"DF202671818837","FECHA_REPOSICION":"29-09-2026 19:20","FECHA_INI":"29-09-2026 14:20","id_alim":127,"numero_cliente":1109921,"ID_AVISO":"500ck00001DDI7dAAH"}},{"type":"Feature","geometry":{"type":"Point","coordinates":[-70.79603563629095,-33.481978696702285]},"properties":{"TIPO":"AVISO","CODIGO":"DF202671818960","COD_AVISO":1057271252,"DIRECCION":"PEYUHUE OTE 150 C/14 ","FALLA":"NOMBRE: Oscar SoteloRUT: 79564","DESC_EVENTO":"prueba","COD_EVENTO":"DF202671818960","FECHA_REPOSICION":"29-09-2026 21:47","FECHA_INI":"29-09-2026 16:47","id_alim":2722,"numero_cliente":1185336,"ID_AVISO":"500ck00001DEIqeAAH"}},{"type":"Feature","geometry":{"type":"Point","coordinates":[-70.62818788769343,-33.40115059926394]},"properties":{"TIPO":"AVISO","CODIGO":"DF202671818815","COD_AVISO":1057166445,"DIRECCION":"ANTONIA SILVA PRADO O298 ","FALLA":"--","DESC_EVENTO":"prueba","COD_EVENTO":"DF202671818815","FECHA_REPOSICION":"29-09-2026 19:04","FECHA_INI":"29-09-2026 14:04","id_alim":2332,"numero_cliente":703562,"ID_AVISO":"500ck00001DDizKAAT"}},{"type":"Feature","geometry":{"type":"Point","coordinates":[-70.6865021548381,-33.460789784683556]},"properties":{"TIPO":"AVISO","CODIGO":"DF202671818719","COD_AVISO":1057080692,"DIRECCION":"GENTOSO 1123 ","FALLA":"TEN Actualizado a 29/09/2026 1","DESC_EVENTO":"prueba","COD_EVENTO":"DF202671818719","FECHA_REPOSICION":"29-09-2026 19:58","FECHA_INI":"29-09-2026 11:58","id_alim":2232,"numero_cliente":859254,"ID_AVISO":"500ck00001DCYmDAAX"}},{"type":"Feature","geometry":{"type":"Point","coordinates":[-70.72126727505945,-33.44002072430752]},"properties":{"TIPO":"AVISO","CODIGO":"DF202671818907","COD_AVISO":1057240350,"DIRECCION":"SANTA LUISA 6078 ","FALLA":"Nombre: Cristian RojasRut: 128","DESC_EVENTO":"prueba","COD_EVENTO":"DF202671818907","FECHA_REPOSICION":"29-09-2026 20:54","FECHA_INI":"29-09-2026 15:54","id_alim":2034,"numero_cliente":416121,"ID_AVISO":"500ck00001DEV8yAAH"}},{"type":"Feature","geometry":{"type":"Point","coordinates":[-70.62460401448764,-33.46916305190069]},"properties":{"TIPO":"AVISO","CODIGO":"DF202671818466","COD_AVISO":1056891829,"DIRECCION":"AV VICUNA MACKENNA 2289A T/ 1 D/ 2104 ","FALLA":"TEN Actualizado a 29/09/2026 2","DESC_EVENTO":"prueba","COD_EVENTO":"DF202671818466","FECHA_REPOSICION":"29-09-2026 20:51","FECHA_INI":"29-09-2026 06:51","id_alim":1934,"numero_cliente":2913224,"ID_AVISO":"500ck00001D9OheAAF"}},{"type":"Feature","geometry":{"type":"Point","coordinates":[-70.55772761726514,-33.422720583885024]},"properties":{"TIPO":"AVISO","CODIGO":"DF202671818913","COD_AVISO":1057247561,"DIRECCION":"SANDOKAN 7122 ","FALLA":"--","DESC_EVENTO":"prueba","COD_EVENTO":"DF202671818913","FECHA_REPOSICION":"29-09-2026 21:04","FECHA_INI":"29-09-2026 16:04","id_alim":212,"numero_cliente":257538,"ID_AVISO":"500ck00001DETf1AAH"}},{"type":"Feature","geometry":{"type":"Point","coordinates":[-70.72407430324698,-33.42813527995319]},"properties":{"TIPO":"AVISO","CODIGO":"DF202671818922","COD_AVISO":1057253403,"DIRECCION":"SAN FELIX 6373 ","FALLA":"Obs lari 29-09-2026 16:40 hrs ","DESC_EVENTO":"prueba","COD_EVENTO":"DF202671818922","FECHA_REPOSICION":"29-09-2026 21:15","FECHA_INI":"29-09-2026 16:15","id_alim":2031,"numero_cliente":1656183,"ID_AVISO":"500ck00001DDL7SAAX"}},{"type":"Feature","geometry":{"type":"Point","coordinates":[-70.69811319470315,-33.44816367883674]},"properties":{"TIPO":"AVISO","CODIGO":"DF202671818638","COD_AVISO":1057025270,"DIRECCION":"BLANCO GARCES 154 DEPTO 514 T A ","FALLA":"TEN Actualizado a 29/09/2026 1","DESC_EVENTO":"prueba","COD_EVENTO":"DF202671818638","FECHA_REPOSICION":"29-09-2026 18:48","FECHA_INI":"29-09-2026 10:48","id_alim":2037,"numero_cliente":3417698,"ID_AVISO":"500ck00001DAywLAAT"}},{"type":"Feature","geometry":{"type":"Point","coordinates":[-70.65720911863683,-33.50860980733863]},"properties":{"TIPO":"AVISO","CODIGO":"DF202671818820","COD_AVISO":1057168709,"DIRECCION":"SEPTIMA AVENIDA 1128 ","FALLA":"TICKET CON DOS AVISOSDIRECCION","DESC_EVENTO":"prueba","COD_EVENTO":"DF202671818820","FECHA_REPOSICION":"29-09-2026 18:22","FECHA_INI":"29-09-2026 14:07","id_alim":524,"numero_cliente":827121,"ID_AVISO":"500ck00001DDWtcAAH"}},{"type":"Feature","geometry":{"type":"Point","coordinates":[-70.60782375248684,-33.383407297448514]},"properties":{"TIPO":"AVISO","CODIGO":"DF202671818032","COD_AVISO":1056528280,"DIRECCION":"RINCONADA EL SALTO 980 DP 301 ","FALLA":"29/09/2026 15:53 REQUIERE MOVI","DESC_EVENTO":"prueba","COD_EVENTO":"DF202671818032","FECHA_REPOSICION":"29-09-2026 20:14","FECHA_INI":"28-09-2026 12:32","id_alim":2331,"numero_cliente":2542953,"ID_AVISO":"500ck00001D2wlTAAR"}},{"type":"Feature","geometry":{"type":"Point","coordinates":[-70.696815176935,-33.4546290057249]},"properties":{"TIPO":"AVISO","CODIGO":"DF202671818636","COD_AVISO":1057023636,"DIRECCION":"GENERAL AMENGUAL 184 ","FALLA":"TEN Actualizado a 29/09/2026 1","DESC_EVENTO":"prueba","COD_EVENTO":"DF202671818636","FECHA_REPOSICION":"29-09-2026 18:46","FECHA_INI":"29-09-2026 10:46","id_alim":2242,"numero_cliente":768769,"ID_AVISO":"500ck00001DBxBIAA1"}},{"type":"Feature","geometry":{"type":"Point","coordinates":[-70.65393810906076,-33.47063042997846]},"properties":{"TIPO":"AVISO","CODIGO":"DF202671804563","COD_AVISO":1057094809,"DIRECCION":"P MONTT OTE SAN IGNACIO","FALLA":"TEN Actualizado a 29/09/2026 1","DESC_EVENTO":"prueba","COD_EVENTO":"DF202671804563","FECHA_REPOSICION":"29-09-2026 19:30","FECHA_INI":"29-09-2026 10:30","id_alim":633,"numero_cliente":2996175,"ID_AVISO":"500ck00001DC2A3AAL"}},{"type":"Feature","geometry":{"type":"Point","coordinates":[-70.687737219513,-33.49483303930328]},"properties":{"TIPO":"AVISO","CODIGO":"DF202671818493","COD_AVISO":1056908277,"DIRECCION":"CENTRAL 5901 ","FALLA":"TEN Actualizado a 29/09/2026 1","DESC_EVENTO":"prueba","COD_EVENTO":"DF202671818493","FECHA_REPOSICION":"29-09-2026 18:55","FECHA_INI":"29-09-2026 08:03","id_alim":2223,"numero_cliente":373770,"ID_AVISO":"500ck00001D9pTKAAZ"}},{"type":"Feature","geometry":{"type":"Point","coordinates":[-70.76971654906545,-33.48550851909477]},"properties":{"TIPO":"AVISO","CODIGO":"DF202671818867","COD_AVISO":1057208730,"DIRECCION":"CANCION NACIONAL 1608 ","FALLA":"ConnID: 0ae603b593acbae3Nombre","DESC_EVENTO":"prueba","COD_EVENTO":"DF202671818867","FECHA_REPOSICION":"29-09-2026 20:07","FECHA_INI":"29-09-2026 15:07","id_alim":2717,"numero_cliente":1446484,"ID_AVISO":"500ck00001DD0W3AAL"}},{"type":"Feature","geometry":{"type":"Point","coordinates":[-70.65747501306359,-33.410989859654656]},"properties":{"TIPO":"AVISO","CODIGO":"DF202671818942","COD_AVISO":1057263314,"DIRECCION":"INDEPENDENCIA 1499 ED E DP 501  ","FALLA":"--","DESC_EVENTO":"prueba","COD_EVENTO":"DF202671818942","FECHA_REPOSICION":"29-09-2026 21:32","FECHA_INI":"29-09-2026 16:32","id_alim":114,"numero_cliente":2532017,"ID_AVISO":"500ck00001DDNpGAAX"}},{"type":"Feature","geometry":{"type":"Point","coordinates":[-70.72359407145915,-33.34615170064573]},"properties":{"TIPO":"AVISO","CODIGO":"DF202671818844","COD_AVISO":1057185373,"DIRECCION":"FT AVD PAJONALES 701 ","FALLA":"OBS LARI: EMPALME DE AP SE ENC","DESC_EVENTO":"prueba","COD_EVENTO":"DF202671818844","FECHA_REPOSICION":"29-09-2026 19:31","FECHA_INI":"29-09-2026 14:31","id_alim":1441,"numero_cliente":3715888,"ID_AVISO":"500ck00001DCRDQAA5"}},{"type":"Feature","geometry":{"type":"Point","coordinates":[-70.7458592497998,-33.3661951797631]},"properties":{"TIPO":"AVISO","CODIGO":"DF202671818795","COD_AVISO":1057144020,"DIRECCION":"LAS VIOLETAS 300A DP 34  ","FALLA":"OBS LARI: SE LLAMA AL FONO EST","DESC_EVENTO":"prueba","COD_EVENTO":"DF202671818795","FECHA_REPOSICION":"29-09-2026 18:30","FECHA_INI":"29-09-2026 13:30","id_alim":2844,"numero_cliente":1301637,"ID_AVISO":"500ck00001DCvitAAD"}},{"type":"Feature","geometry":{"type":"Point","coordinates":[-70.63610792361277,-33.413823697695065]},"properties":{"TIPO":"AVISO","CODIGO":"DF202671818783","COD_AVISO":1057129784,"DIRECCION":"FRANCISCO SILVA 1379 ","FALLA":"TEMPLATE EMERGENCIA TIPOClient","DESC_EVENTO":"prueba","COD_EVENTO":"DF202671818783","FECHA_REPOSICION":"29-09-2026 18:15","FECHA_INI":"29-09-2026 13:15","id_alim":2332,"numero_cliente":350495,"ID_AVISO":"500ck00001DD4dwAAD"}},{"type":"Feature","geometry":{"type":"Point","coordinates":[-70.61240702698834,-33.510556694117]},"properties":{"TIPO":"AVISO","CODIGO":"DF202671818858","COD_AVISO":1057199761,"DIRECCION":"LOGRONO 6278 ","FALLA":">>RECLAMAN DOMICILIOS ELECTRIZ","DESC_EVENTO":"prueba","COD_EVENTO":"DF202671818858","FECHA_REPOSICION":"29-09-2026 19:52","FECHA_INI":"29-09-2026 14:52","id_alim":1944,"numero_cliente":553293,"ID_AVISO":"500ck00001DDqqbAAD"}},{"type":"Feature","geometry":{"type":"Point","coordinates":[-70.69061930452276,-33.508609597288185]},"properties":{"TIPO":"AVISO","CODIGO":"DF202671818956","COD_AVISO":1057268984,"DIRECCION":"8 SUR 5179 SIT ","FALLA":"Telefono de contacto FC/984554","DESC_EVENTO":"prueba","COD_EVENTO":"DF202671818956","FECHA_REPOSICION":"29-09-2026 21:42","FECHA_INI":"29-09-2026 16:42","id_alim":535,"numero_cliente":683403,"ID_AVISO":"500ck00001DEg1ZAAT"}},{"type":"Feature","geometry":{"type":"Point","coordinates":[-70.64017818291978,-33.521972755036586]},"properties":{"TIPO":"AVISO","CODIGO":"DF202671818850","COD_AVISO":1057191693,"DIRECCION":"MARIA ANGELICA 7120 ","FALLA":">>NO ASIGNAR, FONO DE CONTACTO","DESC_EVENTO":"prueba","COD_EVENTO":"DF202671818850","FECHA_REPOSICION":"29-09-2026 19:42","FECHA_INI":"29-09-2026 14:42","id_alim":533,"numero_cliente":508574,"ID_AVISO":"500ck00001DD0hLAAT"}},{"type":"Feature","geometry":{"type":"Point","coordinates":[-70.7032781824539,-33.40949194445053]},"properties":{"TIPO":"AVISO","CODIGO":"DF202671818702","COD_AVISO":1057065625,"DIRECCION":"MEZA BELL 2851 DP 545 ","FALLA":"TEN Actualizado a 29/09/2026 1","DESC_EVENTO":"prueba","COD_EVENTO":"DF202671818702","FECHA_REPOSICION":"29-09-2026 19:39","FECHA_INI":"29-09-2026 11:39","id_alim":112,"numero_cliente":3084664,"ID_AVISO":"500ck00001DCZ5KAAX"}},{"type":"Feature","geometry":{"type":"Point","coordinates":[-70.62460401448764,-33.46916305190069]},"properties":{"TIPO":"AVISO","CODIGO":"DF202671818466","COD_AVISO":1057220261,"DIRECCION":"AV VICUNA MACKENNA 2289A T/ 1 D/ 2104 ","FALLA":"TEN Actualizado a 29/09/2026 2","DESC_EVENTO":"prueba","COD_EVENTO":"DF202671818466","FECHA_REPOSICION":"29-09-2026 20:51","FECHA_INI":"29-09-2026 06:51","id_alim":1934,"numero_cliente":2913209,"ID_AVISO":"500ck00001DDpvFAAT"}},{"type":"Feature","geometry":{"type":"Point","coordinates":[-70.62460401448764,-33.46916305190069]},"properties":{"TIPO":"AVISO","CODIGO":"DF202671818466","COD_AVISO":1056891245,"DIRECCION":"AV VICUNA MACKENNA 2289A T/ 1 D/ 2104 ","FALLA":"TEN Actualizado a 29/09/2026 2","DESC_EVENTO":"prueba","COD_EVENTO":"DF202671818466","FECHA_REPOSICION":"29-09-2026 20:51","FECHA_INI":"29-09-2026 06:51","id_alim":1934,"numero_cliente":2913223,"ID_AVISO":"500ck00001D9DvxAAF"}},{"type":"Feature","geometry":{"type":"Point","coordinates":[-70.7886267878793,-33.5344159641005]},"properties":{"TIPO":"AVISO","CODIGO":"DF202671818720","COD_AVISO":1057080523,"DIRECCION":"4 PONIENTE 0610  ","FALLA":"TEN Actualizado a 29/09/2026 1","DESC_EVENTO":"prueba","COD_EVENTO":"DF202671818720","FECHA_REPOSICION":"29-09-2026 19:59","FECHA_INI":"29-09-2026 11:59","id_alim":3316,"numero_cliente":1368759,"ID_AVISO":"500ck00001DCDUsAAP"}},{"type":"Feature","geometry":{"type":"Point","coordinates":[-70.62667697020568,-33.450322964664565]},"properties":{"TIPO":"AVISO","CODIGO":"DF202671818473","COD_AVISO":1056893260,"DIRECCION":"IRARRAZAVAL 425 DP 1203 ","FALLA":"CLIENTE CON SERVICIO, RECLAMA ","DESC_EVENTO":"prueba","COD_EVENTO":"DF202671818473","FECHA_REPOSICION":"29-09-2026 18:25","FECHA_INI":"29-09-2026 07:13","id_alim":1845,"numero_cliente":2918157,"ID_AVISO":"500ck00001D9FUgAAN"}},{"type":"Feature","geometry":{"type":"Point","coordinates":[-70.70978325486838,-33.44364056577018]},"properties":{"TIPO":"AVISO","CODIGO":"DF202671818615","COD_AVISO":1057246201,"DIRECCION":"SALERNO 625 ","FALLA":"TEN Actualizado a 29/09/2026 1","DESC_EVENTO":"prueba","COD_EVENTO":"DF202671818615","FECHA_REPOSICION":"29-09-2026 18:24","FECHA_INI":"29-09-2026 10:24","id_alim":2012,"numero_cliente":9086,"ID_AVISO":"500ck00001DENOXAA5"}},{"type":"Feature","geometry":{"type":"Point","coordinates":[-70.76619563964142,-33.54593002216977]},"properties":{"TIPO":"AVISO","CODIGO":"DF202671818715","COD_AVISO":1057078071,"DIRECCION":"CONSTANTINO 1237 ","FALLA":"TEN Actualizado a 29/09/2026 1","DESC_EVENTO":"prueba","COD_EVENTO":"DF202671818715","FECHA_REPOSICION":"29-09-2026 19:55","FECHA_INI":"29-09-2026 11:55","id_alim":3318,"numero_cliente":1232619,"ID_AVISO":"500ck00001DCDeTAAX"}},{"type":"Feature","geometry":{"type":"Point","coordinates":[-70.65647110261021,-33.49627402652408]},"properties":{"TIPO":"AVISO","CODIGO":"DF202671818757","COD_AVISO":1057113436,"DIRECCION":"SAN NICOLAS 1207 ","FALLA":"TEN Actualizado a 29/09/2026 2","DESC_EVENTO":"prueba","COD_EVENTO":"DF202671818757","FECHA_REPOSICION":"29-09-2026 20:45","FECHA_INI":"29-09-2026 12:45","id_alim":1214,"numero_cliente":3015092,"ID_AVISO":"500ck00001DCYBDAA5"}},{"type":"Feature","geometry":{"type":"Point","coordinates":[-70.63607796752098,-33.469335972989846]},"properties":{"TIPO":"AVISO","CODIGO":"DF202671818848","COD_AVISO":1057190508,"DIRECCION":"CARMEN 2001 ","FALLA":"Telefono de contacto FC/974952","DESC_EVENTO":"prueba","COD_EVENTO":"DF202671818848","FECHA_REPOSICION":"29-09-2026 19:39","FECHA_INI":"29-09-2026 14:39","id_alim":1923,"numero_cliente":201731,"ID_AVISO":"500ck00001DEFgqAAH"}},{"type":"Feature","geometry":{"type":"Point","coordinates":[-70.64271187251217,-33.38735406004707]},"properties":{"TIPO":"AVISO","CODIGO":"DF202671818899","COD_AVISO":1057230025,"DIRECCION":"LEONCIO VILLABLANCA 614 ","FALLA":"ConnID: 0ae603b593acc439Nombre","DESC_EVENTO":"prueba","COD_EVENTO":"DF202671818899","FECHA_REPOSICION":"29-09-2026 20:41","FECHA_INI":"29-09-2026 15:41","id_alim":2313,"numero_cliente":483096,"ID_AVISO":"500ck00001DEJeIAAX"}},{"type":"Feature","geometry":{"type":"Point","coordinates":[-70.74545750299474,-33.498380653270914]},"properties":{"TIPO":"AVISO","CODIGO":"DF202671818902","COD_AVISO":1057235319,"DIRECCION":"CENTRAL 994 ","FALLA":"Telefono de contacto FC/963417","DESC_EVENTO":"prueba","COD_EVENTO":"DF202671818902","FECHA_REPOSICION":"29-09-2026 20:46","FECHA_INI":"29-09-2026 15:46","id_alim":2713,"numero_cliente":816246,"ID_AVISO":"500ck00001DEDDwAAP"}},{"type":"Feature","geometry":{"type":"Point","coordinates":[-70.72627134177962,-33.47572878404552]},"properties":{"TIPO":"AVISO","CODIGO":"DF202671818912","COD_AVISO":1057246177,"DIRECCION":"BRAMANTE 1198 ","FALLA":"Telefono de contacto FC/976013","DESC_EVENTO":"prueba","COD_EVENTO":"DF202671818912","FECHA_REPOSICION":"29-09-2026 21:02","FECHA_INI":"29-09-2026 16:02","id_alim":2231,"numero_cliente":1049664,"ID_AVISO":"500ck00001DDxdtAAD"}},{"type":"Feature","geometry":{"type":"Point","coordinates":[-70.74695030293631,-33.382497847138275]},"properties":{"TIPO":"AVISO","CODIGO":"DF202671818938","COD_AVISO":1057260709,"DIRECCION":"LOS COIGUES 701 BL M DP 2 ","FALLA":"OBS LARI: SE LLAMA AL FONO EST","DESC_EVENTO":"prueba","COD_EVENTO":"DF202671818938","FECHA_REPOSICION":"29-09-2026 21:27","FECHA_INI":"29-09-2026 16:27","id_alim":2815,"numero_cliente":1360444,"ID_AVISO":"500ck00001DEkayAAD"}},{"type":"Feature","geometry":{"type":"Point","coordinates":[-70.74644336362877,-33.40391998156432]},"properties":{"TIPO":"AVISO","CODIGO":"DF202671818758","COD_AVISO":1057112699,"DIRECCION":"LOS ARTESANOS 1165B 115 ","FALLA":"TEN Actualizado a 29/09/2026 2","DESC_EVENTO":"prueba","COD_EVENTO":"DF202671818758","FECHA_REPOSICION":"29-09-2026 20:46","FECHA_INI":"29-09-2026 12:46","id_alim":411,"numero_cliente":1653271,"ID_AVISO":"500ck00001DCVVGAA5"}},{"type":"Feature","geometry":{"type":"Point","coordinates":[-70.50422633740926,-33.386609057573665]},"properties":{"TIPO":"AVISO","CODIGO":"DF202671818845","COD_AVISO":1057185630,"DIRECCION":"SAN BENITO 12253 ","FALLA":"Dir: La linea está cortada Tel","DESC_EVENTO":"prueba","COD_EVENTO":"DF202671818845","FECHA_REPOSICION":"29-09-2026 19:32","FECHA_INI":"29-09-2026 14:32","id_alim":1032,"numero_cliente":1250759,"ID_AVISO":"500ck00001DDu4WAAT"}},{"type":"Feature","geometry":{"type":"Point","coordinates":[-70.7257922297991,-33.39444214262742]},"properties":{"TIPO":"AVISO","CODIGO":"DF202671818880","COD_AVISO":1057220471,"DIRECCION":"FRUTILLAR 5038 ","FALLA":"--","DESC_EVENTO":"prueba","COD_EVENTO":"DF202671818880","FECHA_REPOSICION":"29-09-2026 20:24","FECHA_INI":"29-09-2026 15:24","id_alim":441,"numero_cliente":1160344,"ID_AVISO":"500ck00001DDHsHAAX"}},{"type":"Feature","geometry":{"type":"Point","coordinates":[-70.63715957857642,-33.27554825892322]},"properties":{"TIPO":"AVISO","CODIGO":"DF202671818963","COD_AVISO":1057272427,"DIRECCION":"LAS AGUILAS 95 ","FALLA":"--","DESC_EVENTO":"prueba","COD_EVENTO":"DF202671818963","FECHA_REPOSICION":"29-09-2026 21:49","FECHA_INI":"29-09-2026 16:49","id_alim":3531,"numero_cliente":2579050,"ID_AVISO":"500ck00001DEw7QAAT"}},{"type":"Feature","geometry":{"type":"Point","coordinates":[-70.714485201579,-33.40254969404083]},"properties":{"TIPO":"AVISO","CODIGO":"DF202671818799","COD_AVISO":"I1057136467","DIRECCION":"GRUMETE CABRALES 4613 ","FALLA":"sin suministro cables al descu","DESC_EVENTO":"prueba","COD_EVENTO":"DF202671818799","FECHA_REPOSICION":"29-09-2026 18:19","FECHA_INI":"29-09-2026 13:19","id_alim":112,"numero_cliente":1099853,"ID_AVISO":"500ck00001DDKTzAAP"}},{"type":"Feature","geometry":{"type":"Point","coordinates":[-70.72284018929919,-33.41145098943822]},"properties":{"TIPO":"AVISO","CODIGO":"DF202671818814","COD_AVISO":1057164978,"DIRECCION":"LA CARTA 2365 ","FALLA":"ConnID: 0ae603b593aca7caNombre","DESC_EVENTO":"prueba","COD_EVENTO":"DF202671818814","FECHA_REPOSICION":"29-09-2026 19:03","FECHA_INI":"29-09-2026 14:03","id_alim":413,"numero_cliente":773374,"ID_AVISO":"500ck00001DCh3SAAT"}},{"type":"Feature","geometry":{"type":"Point","coordinates":[-70.75434121214714,-33.362802201119266]},"properties":{"TIPO":"AVISO","CODIGO":"DF202671818777","COD_AVISO":1057127124,"DIRECCION":"LAS GARZAS 0695 303 ","FALLA":"TEN Actualizado a 29/09/2026 2","DESC_EVENTO":"prueba","COD_EVENTO":"DF202671818777","FECHA_REPOSICION":"29-09-2026 21:06","FECHA_INI":"29-09-2026 13:06","id_alim":2844,"numero_cliente":1607019,"ID_AVISO":"500ck00001DCQP9AAP"}},{"type":"Feature","geometry":{"type":"Point","coordinates":[-70.68345811505488,-33.430410739099976]},"properties":{"TIPO":"AVISO","CODIGO":"DF202671818706","COD_AVISO":1057070013,"DIRECCION":"RIVAS VICUNA 1131 P/ 22 DEPTO 2213 ","FALLA":"TEN Actualizado a 29/09/2026 1","DESC_EVENTO":"prueba","COD_EVENTO":"DF202671818706","FECHA_REPOSICION":"29-09-2026 19:44","FECHA_INI":"29-09-2026 11:44","id_alim":321,"numero_cliente":3695454,"ID_AVISO":"500ck00001DBE3dAAH"}},{"type":"Feature","geometry":{"type":"Point","coordinates":[-70.67055936399325,-33.089957661442135]},"properties":{"TIPO":"AVISO","CODIGO":"DF202671818947","COD_AVISO":1057264495,"DIRECCION":"AL QUILAPILUN ALTO 2100 CA 23 PASAJE GUAYACAN ","FALLA":"OBS LARI: REALIZA LLAMAOD ESTE","DESC_EVENTO":"prueba","COD_EVENTO":"DF202671818947","FECHA_REPOSICION":"29-09-2026 21:34","FECHA_INI":"29-09-2026 16:34","id_alim":5513,"numero_cliente":3701663,"ID_AVISO":"500ck00001DEm03AAD"}},{"type":"Feature","geometry":{"type":"Point","coordinates":[-70.62460401448764,-33.46916305190069]},"properties":{"TIPO":"AVISO","CODIGO":"DF202671818466","COD_AVISO":1056893160,"DIRECCION":"AV VICUNA MACKENNA 2289A T/ 1 D/ 2104 ","FALLA":"TEN Actualizado a 29/09/2026 2","DESC_EVENTO":"prueba","COD_EVENTO":"DF202671818466","FECHA_REPOSICION":"29-09-2026 20:51","FECHA_INI":"29-09-2026 06:51","id_alim":1934,"numero_cliente":2913211,"ID_AVISO":"500ck00001D9XEiAAN"}},{"type":"Feature","geometry":{"type":"Point","coordinates":[-70.72053745973011,-33.501363669728924]},"properties":{"TIPO":"AVISO","CODIGO":"DF202671818898","COD_AVISO":1057231244,"DIRECCION":"PABLO SUAREZ 7522 ","FALLA":"TEN Actualizado a 29/09/2026 2","DESC_EVENTO":"prueba","COD_EVENTO":"DF202671818898","FECHA_REPOSICION":"29-09-2026 17:34","FECHA_INI":"29-09-2026 15:40","id_alim":1123,"numero_cliente":457271,"ID_AVISO":"500ck00001DERwaAAH"}},{"type":"Feature","geometry":{"type":"Point","coordinates":[-70.61942308889442,-33.51711521124949]},"properties":{"TIPO":"AVISO","CODIGO":"DF202671818668","COD_AVISO":1057046282,"DIRECCION":"PJE SIETE 6532 B D/2 ","FALLA":"*ASIGNAR*-CLIENTE SIN SUMINIST","DESC_EVENTO":"prueba","COD_EVENTO":"DF202671818668","FECHA_REPOSICION":"29-09-2026 19:14","FECHA_INI":"29-09-2026 11:14","id_alim":1915,"numero_cliente":285889,"ID_AVISO":"500ck00001DBAoHAAX"}},{"type":"Feature","geometry":{"type":"Point","coordinates":[-70.7208614138694,-33.47901915999628]},"properties":{"TIPO":"AVISO","CODIGO":"DF202671818812","COD_AVISO":1057164285,"DIRECCION":"CARDENAL JUAN FRANCISCO FRESNO 4013  ","FALLA":"null Comuna: CERRILLOS","DESC_EVENTO":"prueba","COD_EVENTO":"DF202671818812","FECHA_REPOSICION":"29-09-2026 19:00","FECHA_INI":"29-09-2026 14:00","id_alim":2231,"numero_cliente":1625768,"ID_AVISO":"500ck00001DCOljAAH"}},{"type":"Feature","geometry":{"type":"Point","coordinates":[-70.6848440104132,-33.38392277107231]},"properties":{"TIPO":"AVISO","CODIGO":"DF202671818568","COD_AVISO":1056965752,"DIRECCION":"CAMPANARIO 2420 ","FALLA":"TEN Actualizado a 29/09/2026 2","DESC_EVENTO":"prueba","COD_EVENTO":"DF202671818568","FECHA_REPOSICION":"29-09-2026 17:10","FECHA_INI":"29-09-2026 09:33","id_alim":127,"numero_cliente":844913,"ID_AVISO":"500ck00001D9lv3AAB"}},{"type":"Feature","geometry":{"type":"Point","coordinates":[-70.6482360020141,-33.46835900026358]},"properties":{"TIPO":"AVISO","CODIGO":"DF202671818882","COD_AVISO":1057222259,"DIRECCION":"GENERAL GANA 1063 TR B DP 2610  ","FALLA":"--","DESC_EVENTO":"prueba","COD_EVENTO":"DF202671818882","FECHA_REPOSICION":"29-09-2026 20:27","FECHA_INI":"29-09-2026 15:27","id_alim":1217,"numero_cliente":3299128,"ID_AVISO":"500ck00001DEFhCAAX"}}]}